{"type":"FeatureCollection", "features":[
{"type":"Feature","geometry":{"type":"Point","coordinates":[144.9432922,-37.7658896]},"properties":{"full_id":"n34006902","osm_id":"34006902","osm_type":"node","amenity":"fuel","opening_hours":"24/7","brand:wikidata":"Q259340","brand":"7-Eleven","addr:suburb":"Brunswick West","addr:street":"Melville Road","addr:state":"VIC","addr:postcode":"3055","addr:housenumber":"27-31","name":"7-Eleven"}},
{"type":"Feature","geometry":{"type":"Point","coordinates":[144.7031143,-37.7471516]},"properties":{"full_id":"n42973789","osm_id":"42973789","osm_type":"node","amenity":"fuel","website":"https://www.7eleven.com.au/","operator":"7 Eleven","brand":"Mobil","name":"7 Eleven Rockbank"}},
{"type":"Feature","geometry":{"type":"Point","coordinates":[145.1611231,-37.902873]},"properties":{"full_id":"n98149177","osm_id":"98149177","osm_type":"node","amenity":"fuel","compressed_air":"yes","brand:wikipedia":"en:Coles Express","website":"https://www.colesexpress.com.au/","brand:wikidata":"Q5144653","brand":"Coles Express","name":"Coles Express"}},
{"type":"Feature","geometry":{"type":"Point","coordinates":[145.1618225,-37.9039474]},"properties":{"full_id":"n98149360","osm_id":"98149360","osm_type":"node","amenity":"fuel","brand:wikipedia":"en:7-Eleven","website":"https://www.7eleven.com.au/","operator":"7-Eleven","brand:wikidata":"Q259340","brand":"7-Eleven","name":"7-Eleven"}},
{"type":"Feature","geometry":{"type":"Point","coordinates":[145.1785827,-37.8759245]},"properties":{"full_id":"n105484652","osm_id":"105484652","osm_type":"node","amenity":"fuel","name":"The Corner Servo"}},
{"type":"Feature","geometry":{"type":"Point","coordinates":[145.1361815,-37.9602083]},"properties":{"full_id":"n106185870","osm_id":"106185870","osm_type":"node","amenity":"fuel","toilets":"yes","rent:trailers":"no","rent:lpg_bottles":"no","phone":"+61-3-9547-7733","fuel:octane_98":"yes","fuel:octane_95":"no","fuel:octane_91":"yes","fuel:lpg":"yes","fuel:e10":"no","fuel:diesel":"yes","fuel:GTL_diesel":"no","amenity:truck_stop":"no","amenity:superwash":"no","amenity:restaurant":"no","amenity:express":"no","amenity:eftpos":"yes","amenity:cleango":"no","amenity:carwash":"no","amenity:atm":"yes","BP:location_id":"6845","BP:address":"725 Heatherton Road, Clayton South VIC 3169","operator":"BP","brand:wikidata":"Q152057","brand":"BP","name":"BP Clayton South"}},
{"type":"Feature","geometry":{"type":"Point","coordinates":[145.1661029,-37.8799758]},"properties":{"full_id":"n106795547","osm_id":"106795547","osm_type":"node","amenity":"fuel","fuel:biodiesel":"no","caltex:starcash":"no","caltex:address":"252 Springvale Road, Glen Waverley VIC 3150","toilets":"no","rent:lpg_bottles":"no","phone":"+61-3-98038331","fuel:octane_98":"yes","fuel:octane_95":"yes","fuel:octane_91":"yes","fuel:lpg":"yes","fuel:e10":"yes","fuel:diesel":"yes","fuel:GTL_diesel":"yes","amenity:truck_stop":"no","amenity:eftpos":"yes","amenity:carwash":"no","amenity:atm":"no","brand:wikipedia":"en:Caltex","operator":"Caltex","brand:wikidata":"Q277470","brand":"Caltex","name":"Caltex"}},
{"type":"Feature","geometry":{"type":"Point","coordinates":[144.9785529,-37.7759371]},"properties":{"full_id":"n121152516","osm_id":"121152516","osm_type":"node","amenity":"fuel","brand:wikipedia":"en:Caltex","operator":"Caltex","brand:wikidata":"Q277470","brand":"Caltex","name":"Caltex"}},
{"type":"Feature","geometry":{"type":"Point","coordinates":[145.3083931,-37.8021285]},"properties":{"full_id":"n147448397","osm_id":"147448397","osm_type":"node","amenity":"fuel","check":"no","brand:wikipedia":"en:7-Eleven","operator":"7-Eleven","brand:wikidata":"Q259340","brand":"7-Eleven","name":"7-Eleven"}},
{"type":"Feature","geometry":{"type":"Point","coordinates":[145.1435439,-37.9009915]},"properties":{"full_id":"n148849322","osm_id":"148849322","osm_type":"node","amenity":"fuel","fuel:biodiesel":"no","caltex:starcash":"no","caltex:address":"622-626 Blackburn Road, Mount Waverley VIC 3149","toilets":"yes","rent:lpg_bottles":"yes","phone":"+61 3 9562 5407","fuel:octane_98":"yes","fuel:octane_95":"yes","fuel:octane_91":"yes","fuel:lpg":"yes","fuel:e10":"no","fuel:diesel":"no","fuel:GTL_diesel":"yes","amenity:truck_stop":"no","amenity:eftpos":"yes","amenity:carwash":"no","amenity:atm":"yes","brand:wikipedia":"en:Ampol","website":"https://www.caltex.com.au","operator":"Caltex","brand:wikidata":"Q4748528","brand":"Ampol","name":"Ampol"}},
{"type":"Feature","geometry":{"type":"Point","coordinates":[145.2242535,-37.9692098]},"properties":{"full_id":"n156283971","osm_id":"156283971","osm_type":"node","amenity":"fuel","brand:wikipedia":"en:United Petroleum","brand:wikidata":"Q28224393","brand":"United","name":"United"}},
{"type":"Feature","geometry":{"type":"Point","coordinates":[145.2230383,-37.9706137]},"properties":{"full_id":"n156284239","osm_id":"156284239","osm_type":"node","amenity":"fuel","toilets":"no","rent:trailers":"no","rent:lpg_bottles":"no","phone":"+61-3-9792-5403","fuel:octane_98":"yes","fuel:octane_95":"yes","fuel:octane_91":"yes","fuel:lpg":"no","fuel:e10":"no","fuel:diesel":"yes","fuel:GTL_diesel":"no","amenity:truck_stop":"no","amenity:superwash":"no","amenity:restaurant":"no","amenity:express":"no","amenity:eftpos":"yes","amenity:cleango":"no","amenity:carwash":"no","amenity:atm":"no","BP:location_id":"3253","BP:address":"Cnr Heatherton & Stud Rds, Dandenong VIC 3175","brand:wikipedia":"en:BP","website":"www.bp.com.au","operator":"BP","opening_hours":"24/7","brand:wikidata":"Q152057","brand":"BP","name":"BP"}},
{"type":"Feature","geometry":{"type":"Point","coordinates":[145.2368301,-37.9113575]},"properties":{"full_id":"n156292702","osm_id":"156292702","osm_type":"node","amenity":"fuel","brand:wikipedia":"en:BP","website":"www.bp.com.au","operator":"BP","brand:wikidata":"Q152057","brand":"BP","name":"BP"}},
{"type":"Feature","geometry":{"type":"Point","coordinates":[145.1144012,-37.9069161]},"properties":{"full_id":"n204077206","osm_id":"204077206","osm_type":"node","amenity":"fuel","name":"Liberty"}},
{"type":"Feature","geometry":{"type":"Point","coordinates":[144.9462512,-37.6147527]},"properties":{"full_id":"n247810983","osm_id":"247810983","osm_type":"node","amenity":"fuel","name":"Caltex"}},
{"type":"Feature","geometry":{"type":"Point","coordinates":[144.975309,-37.797732]},"properties":{"full_id":"n248969238","osm_id":"248969238","osm_type":"node","amenity":"fuel","car_wash":"no","atm":"yes","addr:city":"Fitzroy","phone":"+61 3 94191647","brand:wikipedia":"en:7-Eleven","operator":"7-Eleven","brand:wikidata":"Q259340","brand":"7-Eleven","addr:street":"Nicholson Street","addr:postcode":"3065","addr:housenumber":"244","name":"7-Eleven Fuel"}},
{"type":"Feature","geometry":{"type":"Point","coordinates":[145.2365512,-37.850873]},"properties":{"full_id":"n256535709","osm_id":"256535709","osm_type":"node","amenity":"fuel","wheelchair":"yes","name":"Fast Fuel"}},
{"type":"Feature","geometry":{"type":"Point","coordinates":[145.075826,-37.898617]},"properties":{"full_id":"n257849639","osm_id":"257849639","osm_type":"node","amenity":"fuel","car_wash":"no","atm":"no","addr:city":"Murrumbeena","brand:wikipedia":"en:United Petroleum","operator":"United","opening_hours":"24/7","brand:wikidata":"Q28224393","brand":"United","addr:street":"Kangaroo Road","addr:postcode":"3163","addr:housenumber":"90","name":"United"}},
{"type":"Feature","geometry":{"type":"Point","coordinates":[145.0749777,-37.907887]},"properties":{"full_id":"n258289339","osm_id":"258289339","osm_type":"node","amenity":"fuel","name":"Fuel Zone"}},
{"type":"Feature","geometry":{"type":"Point","coordinates":[145.2487113,-38.002864]},"properties":{"full_id":"n260542658","osm_id":"260542658","osm_type":"node","amenity":"fuel","toilets":"yes","rent:trailers":"yes","rent:lpg_bottles":"yes","phone":"+61-3-9793-4405","fuel:octane_98":"yes","fuel:octane_95":"yes","fuel:octane_91":"yes","fuel:lpg":"yes","fuel:e10":"no","fuel:diesel":"yes","fuel:GTL_diesel":"no","amenity:truck_stop":"no","amenity:superwash":"no","amenity:restaurant":"no","amenity:express":"no","amenity:eftpos":"yes","amenity:cleango":"no","amenity:carwash":"no","amenity:atm":"yes","BP:location_id":"3682","BP:address":"60 - 64 Princes Hwy, Doveton VIC 3177","website":"www.bp.com.au","operator":"BP","opening_hours":"24/7","name":"BP:AA Doveton"}},
{"type":"Feature","geometry":{"type":"Point","coordinates":[145.2204084,-37.9853148]},"properties":{"full_id":"n260552027","osm_id":"260552027","osm_type":"node","amenity":"fuel","brand:wikipedia":"en:7-Eleven","website":"https://www.7eleven.com.au/","operator":"7-Eleven","brand:wikidata":"Q259340","brand":"7-Eleven","name":"7-Eleven"}},
{"type":"Feature","geometry":{"type":"Point","coordinates":[145.3067965,-37.8503222]},"properties":{"full_id":"n265958218","osm_id":"265958218","osm_type":"node","amenity":"fuel","addr:city":"The Basin","brand:wikipedia":"en:United Petroleum","opening_hours":"24/7","brand:wikidata":"Q28224393","brand":"United","addr:street":"Mountain Highway","addr:postcode":"3154","addr:housenumber":"1202","name":"United"}},
{"type":"Feature","geometry":{"type":"Point","coordinates":[145.2889324,-37.8028671]},"properties":{"full_id":"n265958907","osm_id":"265958907","osm_type":"node","amenity":"fuel","brand:wikipedia":"en:United Petroleum","brand:wikidata":"Q28224393","brand":"United","name":"United"}},
{"type":"Feature","geometry":{"type":"Point","coordinates":[145.2664605,-37.8605898]},"properties":{"full_id":"n265959434","osm_id":"265959434","osm_type":"node","amenity":"fuel","self_service":"yes","brand:wikipedia":"en:Royal Dutch Shell","brand:wikidata":"Q154950","brand":"Shell","addr:street":"Boronia Road","addr:housenumber":"286","name":"Shell"}},
{"type":"Feature","geometry":{"type":"Point","coordinates":[145.2868712,-37.8350029]},"properties":{"full_id":"n266120799","osm_id":"266120799","osm_type":"node","amenity":"fuel","brand:wikipedia":"en:BP","brand:wikidata":"Q152057","brand":"BP","name":"BP Dorset Road"}},
{"type":"Feature","geometry":{"type":"Point","coordinates":[145.3648365,-37.7530548]},"properties":{"full_id":"n266124320","osm_id":"266124320","osm_type":"node","amenity":"fuel","self_service":"yes","fuel:octane_98":"yes","fuel:octane_95":"yes","fuel:octane_91":"yes","fuel:lpg":"yes","fuel:diesel":"yes","brand:wikipedia":"en:Coles Express","website":"https://www.colesexpress.com.au/","opening_hours":"24/7","brand:wikidata":"Q5144653","brand":"Coles Express","addr:suburb":"Lilydale","addr:street":"Maroondah Highway","addr:state":"VIC","addr:postcode":"3140","addr:housenumber":"469","name":"Coles Express"}},
{"type":"Feature","geometry":{"type":"Point","coordinates":[145.2698458,-37.8448126]},"properties":{"full_id":"n266325827","osm_id":"266325827","osm_type":"node","amenity":"fuel","brand:wikipedia":"en:7-Eleven","brand:wikidata":"Q259340","brand":"7-Eleven","name":"7-Eleven"}},
{"type":"Feature","geometry":{"type":"Point","coordinates":[145.2855334,-37.8684587]},"properties":{"full_id":"n266441616","osm_id":"266441616","osm_type":"node","amenity":"fuel","name":"Motorworld"}},
{"type":"Feature","geometry":{"type":"Point","coordinates":[145.3300814,-37.9018503]},"properties":{"full_id":"n266614800","osm_id":"266614800","osm_type":"node","amenity":"fuel","full_name":"7-Eleven Upwey","brand:wikipedia":"en:7-Eleven","website":"https://www.7eleven.com.au","brand:wikidata":"Q259340","brand":"7-Eleven","name":"7-Eleven"}},
{"type":"Feature","geometry":{"type":"Point","coordinates":[144.9186525,-37.7922398]},"properties":{"full_id":"n266856243","osm_id":"266856243","osm_type":"node","amenity":"fuel","brand:wikipedia":"en:Coles Express","website":"https://www.colesexpress.com.au/","brand:wikidata":"Q5144653","brand":"Coles Express","name":"Coles Express"}},
{"type":"Feature","geometry":{"type":"Point","coordinates":[145.271113,-37.8310954]},"properties":{"full_id":"n271605118","osm_id":"271605118","osm_type":"node","amenity":"fuel","brand:wikipedia":"en:7-Eleven","website":"https://www.7eleven.com.au/","brand:wikidata":"Q259340","brand":"7-Eleven","name":"7-Eleven"}},
{"type":"Feature","geometry":{"type":"Point","coordinates":[144.9406255,-37.720426]},"properties":{"full_id":"n281351530","osm_id":"281351530","osm_type":"node","amenity":"fuel","name":"Speedway"}},
{"type":"Feature","geometry":{"type":"Point","coordinates":[144.7856615,-37.8736702]},"properties":{"full_id":"n293343024","osm_id":"293343024","osm_type":"node","amenity":"fuel","name":"Shell"}},
{"type":"Feature","geometry":{"type":"Point","coordinates":[145.2947654,-38.0840714]},"properties":{"full_id":"n294978964","osm_id":"294978964","osm_type":"node","amenity":"fuel","operator":"Apco","name":"Apco"}},
{"type":"Feature","geometry":{"type":"Point","coordinates":[144.80909,-37.8050517]},"properties":{"full_id":"n298314187","osm_id":"298314187","osm_type":"node","amenity":"fuel","brand:wikipedia":"en:7-Eleven","website":"https://www.7eleven.com.au/","operator":"7-Eleven","brand:wikidata":"Q259340","brand":"7-Eleven","name":"7-Eleven"}},
{"type":"Feature","geometry":{"type":"Point","coordinates":[144.804789,-37.8040775]},"properties":{"full_id":"n298314214","osm_id":"298314214","osm_type":"node","amenity":"fuel","brand:wikipedia":"en:7-Eleven","operator":"7-Eleven","brand:wikidata":"Q259340","brand":"7-Eleven","name":"7-Eleven"}},
{"type":"Feature","geometry":{"type":"Point","coordinates":[144.7217165,-37.5798767]},"properties":{"full_id":"n298348914","osm_id":"298348914","osm_type":"node","amenity":"fuel"}},
{"type":"Feature","geometry":{"type":"Point","coordinates":[144.7115616,-37.5783569]},"properties":{"full_id":"n298348946","osm_id":"298348946","osm_type":"node","amenity":"fuel","brand:wikipedia":"en:7-Eleven","brand:wikidata":"Q259340","brand":"7-Eleven","name":"7-Eleven"}},
{"type":"Feature","geometry":{"type":"Point","coordinates":[145.2642035,-38.1103451]},"properties":{"full_id":"n298586131","osm_id":"298586131","osm_type":"node","amenity":"fuel","loc_name":"BP South Cranbourne","toilets":"yes","rent:trailers":"yes","rent:lpg_bottles":"yes","phone":"+61-3-5995-2544","fuel:octane_98":"yes","fuel:octane_95":"yes","fuel:octane_91":"yes","fuel:lpg":"yes","fuel:e10":"no","fuel:diesel":"yes","fuel:GTL_diesel":"no","amenity:truck_stop":"no","amenity:superwash":"no","amenity:restaurant":"yes","amenity:express":"no","amenity:eftpos":"yes","amenity:cleango":"no","amenity:carwash":"no","amenity:atm":"yes","BP:location_id":"4593","BP:address":"1025 - 1045 Frankston-Cranbourne Rd, Cranbourne VIC 3977","brand:wikipedia":"en:BP","brand:wikidata":"Q152057","brand":"BP","name":"BP"}},
{"type":"Feature","geometry":{"type":"Point","coordinates":[144.9753768,-37.7932452]},"properties":{"full_id":"n304949427","osm_id":"304949427","osm_type":"node","amenity":"fuel","brand:wikipedia":"en:Metro Cash & Carry","operator":"Liberty","brand:wikidata":"Q13610282","brand":"METRO","name":"Metro"}},
{"type":"Feature","geometry":{"type":"Point","coordinates":[145.2269805,-37.9267815]},"properties":{"full_id":"n305589521","osm_id":"305589521","osm_type":"node","amenity":"fuel","brand:wikipedia":"en:United Petroleum","website":"https://www.unitedpetroleum.com.au/","brand:wikidata":"Q28224393","brand":"United","name":"United"}},
{"type":"Feature","geometry":{"type":"Point","coordinates":[144.9473446,-37.7941345]},"properties":{"full_id":"n307347250","osm_id":"307347250","osm_type":"node","amenity":"fuel","addr:city":"North Melbourne","phone":"+61 3 93268882","fuel:lpg":"yes","fuel:e10":"yes","fuel:diesel":"yes","operator":"Liberty","brand":"Liberty","addr:street":"Flemington Road","addr:postcode":"3051","addr:housenumber":"235","name":"Liberty"}},
{"type":"Feature","geometry":{"type":"Point","coordinates":[144.9493388,-37.769901]},"properties":{"full_id":"n308692559","osm_id":"308692559","osm_type":"node","amenity":"fuel","brand":"BP","name":"BP"}},
{"type":"Feature","geometry":{"type":"Point","coordinates":[145.1879622,-37.936698]},"properties":{"full_id":"n309847345","osm_id":"309847345","osm_type":"node","amenity":"fuel","brand:wikipedia":"en:7-Eleven","website":"https://www.7eleven.com.au/","brand:wikidata":"Q259340","brand":"7-Eleven","name":"7-Eleven"}},
{"type":"Feature","geometry":{"type":"Point","coordinates":[145.0456897,-37.7134823]},"properties":{"full_id":"n310010506","osm_id":"310010506","osm_type":"node","amenity":"fuel","name":"BP"}},
{"type":"Feature","geometry":{"type":"Point","coordinates":[144.91512,-37.7031365]},"properties":{"full_id":"n313429705","osm_id":"313429705","osm_type":"node","amenity":"fuel","brand:wikipedia":"en:Caltex","operator":"Caltex","brand:wikidata":"Q277470","brand":"Caltex","name":"Caltex"}},
{"type":"Feature","geometry":{"type":"Point","coordinates":[145.5743114,-38.0687267]},"properties":{"full_id":"n313659853","osm_id":"313659853","osm_type":"node","amenity":"fuel","brand:wikipedia":"en:Royal Dutch Shell","operator":"Shell","opening_hours":"24/7","brand:wikidata":"Q154950","brand":"Shell","name":"Shell"}},
{"type":"Feature","geometry":{"type":"Point","coordinates":[145.151937,-37.8105976]},"properties":{"full_id":"n314100366","osm_id":"314100366","osm_type":"node","amenity":"fuel","brand:wikipedia":"en:7-Eleven","brand:wikidata":"Q259340","brand":"7-Eleven","name":"7-Eleven"}},
{"type":"Feature","geometry":{"type":"Point","coordinates":[145.460034,-38.0625902]},"properties":{"full_id":"n323401010","osm_id":"323401010","osm_type":"node","amenity":"fuel","name":"Liberty"}},
{"type":"Feature","geometry":{"type":"Point","coordinates":[145.1886302,-37.911169]},"properties":{"full_id":"n324209972","osm_id":"324209972","osm_type":"node","amenity":"fuel","brand:wikipedia":"en:Caltex Woolworths","brand:wikidata":"Q5023980","brand":"Caltex","name":"Woolworths Petrol"}},
{"type":"Feature","geometry":{"type":"Point","coordinates":[145.2619367,-37.9750241]},"properties":{"full_id":"n324790953","osm_id":"324790953","osm_type":"node","amenity":"fuel","brand:wikipedia":"en:United Petroleum","website":"https://www.unitedpetroleum.com.au/","operator":"United","brand:wikidata":"Q28224393","brand":"United","name":"United"}},
{"type":"Feature","geometry":{"type":"Point","coordinates":[144.5747923,-37.7026985]},"properties":{"full_id":"n325261418","osm_id":"325261418","osm_type":"node","amenity":"fuel","full_name":"Coles Express Melton South","brand:wikipedia":"en:Coles Express","website":"https://www.colesexpress.com.au/","brand:wikidata":"Q5144653","brand":"Coles Express","name":"Coles Express"}},
{"type":"Feature","geometry":{"type":"Point","coordinates":[145.2654211,-38.0472539]},"properties":{"full_id":"n354451937","osm_id":"354451937","osm_type":"node","amenity":"fuel"}},
{"type":"Feature","geometry":{"type":"Point","coordinates":[145.1292753,-37.8766635]},"properties":{"full_id":"n364039684","osm_id":"364039684","osm_type":"node","amenity":"fuel","shop":"convenience","fuel:discount":"coles","operator":"Shell","name":"Coles Express Mount Waverley"}},
{"type":"Feature","geometry":{"type":"Point","coordinates":[145.1252492,-38.1472529]},"properties":{"full_id":"n367121885","osm_id":"367121885","osm_type":"node","amenity":"fuel","website":"https://www.unitedpetroleum.com.au/","brand":"United","name":"United"}},
{"type":"Feature","geometry":{"type":"Point","coordinates":[145.1564478,-38.1128437]},"properties":{"full_id":"n371340254","osm_id":"371340254","osm_type":"node","amenity":"fuel","brand:wikipedia":"en:United Petroleum","website":"https://www.unitedpetroleum.com.au/","brand:wikidata":"Q28224393","brand":"United","addr:street":"Seaford Road","addr:housenumber":"267","name":"United"}},
{"type":"Feature","geometry":{"type":"Point","coordinates":[145.1906898,-38.2909519]},"properties":{"full_id":"n373098236","osm_id":"373098236","osm_type":"node","amenity":"fuel","brand:wikidata":"Q28224393","brand":"United","name":"United"}},
{"type":"Feature","geometry":{"type":"Point","coordinates":[145.1492604,-37.9909027]},"properties":{"full_id":"n427864665","osm_id":"427864665","osm_type":"node","amenity":"fuel","brand:wikipedia":"en:7-Eleven","website":"https://www.7eleven.com.au/","brand:wikidata":"Q259340","brand":"7-Eleven","name":"7-Eleven"}},
{"type":"Feature","geometry":{"type":"Point","coordinates":[145.1216602,-37.9132511]},"properties":{"full_id":"n428222602","osm_id":"428222602","osm_type":"node","amenity":"fuel","brand:wikipedia":"en:7-Eleven","website":"https://www.7eleven.com.au/","brand:wikidata":"Q259340","brand":"7-Eleven","name":"7-Eleven"}},
{"type":"Feature","geometry":{"type":"Point","coordinates":[145.1221579,-37.9143415]},"properties":{"full_id":"n428222603","osm_id":"428222603","osm_type":"node","amenity":"fuel","shop":"convenience","name":"Independent"}},
{"type":"Feature","geometry":{"type":"Point","coordinates":[145.1138961,-37.9874018]},"properties":{"full_id":"n448782116","osm_id":"448782116","osm_type":"node","amenity":"fuel"}},
{"type":"Feature","geometry":{"type":"Point","coordinates":[145.1485155,-38.1236821]},"properties":{"full_id":"n452498193","osm_id":"452498193","osm_type":"node","amenity":"fuel"}},
{"type":"Feature","geometry":{"type":"Point","coordinates":[144.9464432,-37.8350429]},"properties":{"full_id":"n463301448","osm_id":"463301448","osm_type":"node","amenity":"fuel","name":"Ecco Service Centre"}},
{"type":"Feature","geometry":{"type":"Point","coordinates":[145.3053313,-38.0326024]},"properties":{"full_id":"n480463752","osm_id":"480463752","osm_type":"node","amenity":"fuel","addr:unit":"7","fuel:octane_98":"yes","fuel:octane_91":"yes","fuel:lpg":"yes","fuel:e10":"yes","fuel:diesel":"yes","website":"https://www.unitedpetroleum.com.au/","brand":"United","addr:street":"Cranbourne Road","addr:housenumber":"25â€“35","name":"United"}},
{"type":"Feature","geometry":{"type":"Point","coordinates":[144.9550041,-37.8001603]},"properties":{"full_id":"n481694451","osm_id":"481694451","osm_type":"node","amenity":"fuel","website":"https://www.7eleven.com.au/","operator":"7-Eleven","opening_hours":"24/7","brand":"Mobil","name":"7-Eleven"}},
{"type":"Feature","geometry":{"type":"Point","coordinates":[144.7410907,-37.7291447]},"properties":{"full_id":"n496815653","osm_id":"496815653","osm_type":"node","amenity":"fuel","brand:wikipedia":"en:7-Eleven","brand:wikidata":"Q259340","brand":"7-Eleven","name":"7-Eleven"}},
{"type":"Feature","geometry":{"type":"Point","coordinates":[145.1694588,-37.7635822]},"properties":{"full_id":"n527874305","osm_id":"527874305","osm_type":"node","amenity":"fuel","brand:wikipedia":"en:United Petroleum","brand:wikidata":"Q28224393","brand":"United","name":"United"}},
{"type":"Feature","geometry":{"type":"Point","coordinates":[145.0827579,-38.2003652]},"properties":{"full_id":"n585128019","osm_id":"585128019","osm_type":"node","amenity":"fuel","full_name":"BP Mount Eliza","website":"www.bp.com.au","opening_hours":"24/7","brand":"BP","name":"BP"}},
{"type":"Feature","geometry":{"type":"Point","coordinates":[145.1755021,-38.0967754]},"properties":{"full_id":"n585128022","osm_id":"585128022","osm_type":"node","amenity":"fuel","website":"www.endg.com.au","name":"Endeavour"}},
{"type":"Feature","geometry":{"type":"Point","coordinates":[145.1467021,-37.9779043]},"properties":{"full_id":"n585128025","osm_id":"585128025","osm_type":"node","amenity":"fuel","full_name":"BP Springvale South","brand:wikipedia":"en:BP","website":"www.bp.com.au","brand:wikidata":"Q152057","brand":"BP","name":"BP"}},
{"type":"Feature","geometry":{"type":"Point","coordinates":[145.2063885,-37.9783019]},"properties":{"full_id":"n585128029","osm_id":"585128029","osm_type":"node","amenity":"fuel","website":"www.bp.com.au","name":"BP"}},
{"type":"Feature","geometry":{"type":"Point","coordinates":[145.4539203,-38.0619565]},"properties":{"full_id":"n585128032","osm_id":"585128032","osm_type":"node","amenity":"fuel","fuel:octane_98":"yes","fuel:octane_91":"yes","fuel:lpg":"yes","fuel:diesel":"yes","brand:wikipedia":"en:BP","brand:wikidata":"Q152057","brand":"BP","name":"BP"}},
{"type":"Feature","geometry":{"type":"Point","coordinates":[145.2324174,-38.1085798]},"properties":{"full_id":"n585128034","osm_id":"585128034","osm_type":"node","amenity":"fuel","brand:wikipedia":"en:BP","brand:wikidata":"Q152057","brand":"BP","name":"BP"}},
{"type":"Feature","geometry":{"type":"Point","coordinates":[145.2403431,-38.0782735]},"properties":{"full_id":"n585128036","osm_id":"585128036","osm_type":"node","amenity":"fuel","brand:wikipedia":"en:BP","brand:wikidata":"Q152057","brand":"BP","name":"BP"}},
{"type":"Feature","geometry":{"type":"Point","coordinates":[144.747884,-37.6648238]},"properties":{"full_id":"n585128067","osm_id":"585128067","osm_type":"node","amenity":"fuel","brand:wikipedia":"en:BP","website":"www.bp.com.au","brand:wikidata":"Q152057","brand":"BP","name":"BP"}},
{"type":"Feature","geometry":{"type":"Point","coordinates":[144.7533679,-37.665403]},"properties":{"full_id":"n585128068","osm_id":"585128068","osm_type":"node","amenity":"fuel","self_service":"yes","phone":"+61 3 8361 6815","fuel:octane_98":"yes","fuel:octane_95":"yes","fuel:octane_91":"yes","fuel:diesel":"yes","brand:wikipedia":"en:BP","website":"https://www.bp.com/en_au/australia/home.html","brand:wikidata":"Q152057","brand":"BP","addr:suburb":"Keilor North","addr:street":"Calder Freeway","addr:state":"VIC","addr:postcode":"3037","addr:housenumber":"1262","name":"BP"}},
{"type":"Feature","geometry":{"type":"Point","coordinates":[144.8054405,-37.6372882]},"properties":{"full_id":"n585128069","osm_id":"585128069","osm_type":"node","amenity":"fuel","name":"BP Bulla"}},
{"type":"Feature","geometry":{"type":"Point","coordinates":[145.0071919,-37.9004542]},"properties":{"full_id":"n585128120","osm_id":"585128120","osm_type":"node","amenity":"fuel","brand:wikipedia":"en:BP","website":"www.bp.com.au","brand:wikidata":"Q152057","brand":"BP","name":"BP"}},
{"type":"Feature","geometry":{"type":"Point","coordinates":[145.0001404,-37.8261198]},"properties":{"full_id":"n585128127","osm_id":"585128127","osm_type":"node","amenity":"fuel","brand:wikipedia":"en:BP","brand:wikidata":"Q152057","brand":"BP","name":"BP"}},
{"type":"Feature","geometry":{"type":"Point","coordinates":[144.9576356,-37.8275643]},"properties":{"full_id":"n585128132","osm_id":"585128132","osm_type":"node","amenity":"fuel","brand:wikipedia":"en:BP","brand:wikidata":"Q152057","brand":"BP","name":"BP"}},
{"type":"Feature","geometry":{"type":"Point","coordinates":[145.1887833,-37.8363821]},"properties":{"full_id":"n585128162","osm_id":"585128162","osm_type":"node","amenity":"fuel","name":"BP"}},
{"type":"Feature","geometry":{"type":"Point","coordinates":[144.956731,-37.683186]},"properties":{"full_id":"n585128195","osm_id":"585128195","osm_type":"node","amenity":"fuel","fuel:octane_98":"yes","fuel:octane_95":"yes","fuel:octane_91":"yes","fuel:lpg":"yes","fuel:e10":"yes","fuel:diesel":"yes","brand:wikipedia":"en:BP","website":"www.bp.com.au","opening_hours":"24/7","brand:wikidata":"Q152057","brand":"BP","name":"BP"}},
{"type":"Feature","geometry":{"type":"Point","coordinates":[144.8538724,-37.6708207]},"properties":{"full_id":"n585128197","osm_id":"585128197","osm_type":"node","amenity":"fuel","brand:wikipedia":"en:BP","website":"www.bp.com.au","brand:wikidata":"Q152057","brand":"BP","name":"BP"}},
{"type":"Feature","geometry":{"type":"Point","coordinates":[144.8857646,-37.6891688]},"properties":{"full_id":"n585128198","osm_id":"585128198","osm_type":"node","amenity":"fuel","full_name":"BP Gladstone Park","name":"BP"}},
{"type":"Feature","geometry":{"type":"Point","coordinates":[145.3368885,-37.8116285]},"properties":{"full_id":"n585128223","osm_id":"585128223","osm_type":"node","amenity":"fuel","self_service":"yes","wheelchair":"yes","fuel:octane_98":"yes","fuel:octane_91":"yes","fuel:diesel":"yes","brand:wikipedia":"en:BP","opening_hours":"24/7","brand:wikidata":"Q152057","brand":"BP","addr:suburb":"Montrose","addr:street":"Mount Dandenong Road","addr:state":"VIC","addr:postcode":"3765","addr:housenumber":"839","name":"BP Montrose"}},
{"type":"Feature","geometry":{"type":"Point","coordinates":[145.0230189,-37.8132503]},"properties":{"full_id":"n598434277","osm_id":"598434277","osm_type":"node","amenity":"fuel","brand:wikipedia":"en:Royal Dutch Shell","website":"https://www.shell.com.au","brand:wikidata":"Q110716465","brand":"Shell","addr:street":"Barkers Road","addr:housenumber":"82","name":"Shell"}},
{"type":"Feature","geometry":{"type":"Point","coordinates":[145.0221284,-37.8141678]},"properties":{"full_id":"n598434467","osm_id":"598434467","osm_type":"node","amenity":"fuel","brand:wikipedia":"en:7-Eleven","brand:wikidata":"Q259340","brand":"7-Eleven","name":"7-Eleven"}},
{"type":"Feature","geometry":{"type":"Point","coordinates":[145.0485182,-38.2271361]},"properties":{"full_id":"n631458646","osm_id":"631458646","osm_type":"node","amenity":"fuel","brand:wikipedia":"en:Coles Express","website":"https://www.colesexpress.com.au/","brand:wikidata":"Q5144653","brand":"Coles Express","name":"Coles Express"}},
{"type":"Feature","geometry":{"type":"Point","coordinates":[145.0800522,-38.2537176]},"properties":{"full_id":"n631458648","osm_id":"631458648","osm_type":"node","amenity":"fuel","brand:wikipedia":"en:Coles Express","brand:wikidata":"Q5144653","brand":"Coles Express","name":"Coles Express"}},
{"type":"Feature","geometry":{"type":"Point","coordinates":[145.1402156,-38.0099813]},"properties":{"full_id":"n631458650","osm_id":"631458650","osm_type":"node","amenity":"fuel","addr:city":"Braeside","phone":"+61 3 9798 6542","brand:wikipedia":"en:Coles Express","website":"https://www.colesexpress.com.au/","brand:wikidata":"Q5144653","brand":"Coles Express","addr:street":"Springvale Road","addr:postcode":"3195","addr:housenumber":"918-928","name":"Coles Express"}},
{"type":"Feature","geometry":{"type":"Point","coordinates":[145.2525223,-38.0418875]},"properties":{"full_id":"n631458656","osm_id":"631458656","osm_type":"node","amenity":"fuel","website":"https://www.colesexpress.com.au/","operator":"Eureka Operations","brand:wikidata":"Q5144653","brand":"Coles Express","name":"Coles Express"}},
{"type":"Feature","geometry":{"type":"Point","coordinates":[145.3052365,-38.0257975]},"properties":{"full_id":"n631458658","osm_id":"631458658","osm_type":"node","amenity":"fuel","brand:wikipedia":"en:Coles Express","website":"https://www.colesexpress.com.au/","opening_hours":"24/7","brand:wikidata":"Q5144653","brand":"Coles Express","name":"Coles Express"}},
{"type":"Feature","geometry":{"type":"Point","coordinates":[145.4589245,-38.062123]},"properties":{"full_id":"n631458667","osm_id":"631458667","osm_type":"node","amenity":"fuel","fuel:octane_98":"yes","fuel:octane_91":"yes","fuel:lpg":"yes","fuel:diesel":"yes","brand:wikipedia":"en:Coles Express","website":"https://www.colesexpress.com.au/","opening_hours":"24/7","brand:wikidata":"Q5144653","brand":"Coles Express","name":"Coles Express"}},
{"type":"Feature","geometry":{"type":"Point","coordinates":[144.9189096,-37.8309028]},"properties":{"full_id":"n631458694","osm_id":"631458694","osm_type":"node","amenity":"fuel","brand:wikipedia":"en:United Petroleum","website":"https://www.unitedpetroleum.com.au/","brand:wikidata":"Q28224393","brand":"United","name":"United"}},
{"type":"Feature","geometry":{"type":"Point","coordinates":[144.9190169,-37.8292207]},"properties":{"full_id":"n631458695","osm_id":"631458695","osm_type":"node","amenity":"fuel","brand:wikipedia":"en:United Petroleum","website":"https://www.unitedpetroleum.com.au/","brand:wikidata":"Q28224393","brand":"United","name":"United"}},
{"type":"Feature","geometry":{"type":"Point","coordinates":[144.9930519,-37.8575244]},"properties":{"full_id":"n631458699","osm_id":"631458699","osm_type":"node","amenity":"fuel","brand:wikipedia":"en:Coles Express","website":"https://www.colesexpress.com.au/","brand:wikidata":"Q5144653","brand":"Coles Express","name":"Coles Express"}},
{"type":"Feature","geometry":{"type":"Point","coordinates":[145.1920355,-37.937894]},"properties":{"full_id":"n631458701","osm_id":"631458701","osm_type":"node","amenity":"fuel","brand:wikipedia":"en:Coles Express","website":"https://www.colesexpress.com.au/","brand:wikidata":"Q5144653","brand":"Coles Express","name":"Coles Express"}},
{"type":"Feature","geometry":{"type":"Point","coordinates":[145.1624233,-37.9033083]},"properties":{"full_id":"n631458703","osm_id":"631458703","osm_type":"node","amenity":"fuel","fuel:octane_98":"yes","fuel:octane_95":"yes","fuel:octane_91":"yes","fuel:lpg":"yes","fuel:diesel":"yes","brand:wikipedia":"en:Coles Express","website":"https://www.colesexpress.com.au/","opening_hours":"24/7","brand:wikidata":"Q5144653","brand":"Coles Express","name":"Coles Express"}},
{"type":"Feature","geometry":{"type":"Point","coordinates":[145.0596787,-37.9162237]},"properties":{"full_id":"n631458706","osm_id":"631458706","osm_type":"node","amenity":"fuel","brand:wikipedia":"en:Coles Express","brand:wikidata":"Q5144653","brand":"Coles Express","name":"Coles Express"}},
{"type":"Feature","geometry":{"type":"Point","coordinates":[145.0780522,-37.9510247]},"properties":{"full_id":"n631458709","osm_id":"631458709","osm_type":"node","amenity":"fuel","brand:wikipedia":"en:Coles Express","website":"https://www.colesexpress.com.au/","brand:wikidata":"Q5144653","brand":"Coles Express","name":"Coles Express"}},
{"type":"Feature","geometry":{"type":"Point","coordinates":[144.8830814,-37.6868661]},"properties":{"full_id":"n631458741","osm_id":"631458741","osm_type":"node","amenity":"fuel","brand:wikipedia":"en:Coles Express","website":"www.colesexpress.con.au","brand:wikidata":"Q5144653","brand":"Coles Express","name":"Coles Express"}},
{"type":"Feature","geometry":{"type":"Point","coordinates":[145.2680969,-37.8403411]},"properties":{"full_id":"n631458763","osm_id":"631458763","osm_type":"node","amenity":"fuel","brand:wikipedia":"en:Coles Express","website":"https://www.colesexpress.com.au/","brand:wikidata":"Q5144653","brand":"Coles Express","name":"Coles Express"}},
{"type":"Feature","geometry":{"type":"Point","coordinates":[145.2574117,-37.8924271]},"properties":{"full_id":"n631458764","osm_id":"631458764","osm_type":"node","amenity":"fuel","brand:wikipedia":"en:Coles Express","brand:wikidata":"Q5144653","brand":"Coles Express","addr:street":"Ferntree Gully Road","addr:housenumber":"1662","name":"Coles Express"}},
{"type":"Feature","geometry":{"type":"Point","coordinates":[145.3103666,-37.982525]},"properties":{"full_id":"n631477335","osm_id":"631477335","osm_type":"node","traffic_calming":"island"}},
{"type":"Feature","geometry":{"type":"Point","coordinates":[145.0477354,-38.2464675]},"properties":{"full_id":"n634963067","osm_id":"634963067","osm_type":"node","amenity":"fuel","brand:wikipedia":"en:Caltex Woolworths","website":"https://www.woolworthspetrol.com.au/","brand:wikidata":"Q5023980","brand":"Caltex","name":"Woolworths Petrol"}},
{"type":"Feature","geometry":{"type":"Point","coordinates":[145.134378,-38.1489663]},"properties":{"full_id":"n634963080","osm_id":"634963080","osm_type":"node","amenity":"fuel","full_name":"Woolworths Petrol Frankston","brand:wikipedia":"en:Caltex Woolworths","website":"https://www.woolworthspetrol.com.au/","brand:wikidata":"Q5023980","brand":"Caltex","name":"Woolworths Petrol"}},
{"type":"Feature","geometry":{"type":"Point","coordinates":[145.04291,-38.2270866]},"properties":{"full_id":"n634963087","osm_id":"634963087","osm_type":"node","amenity":"fuel","brand:wikipedia":"en:Caltex Woolworths","website":"https://www.woolworthspetrol.com.au/","brand:wikidata":"Q5023980","brand":"Caltex","name":"Woolworths Petrol"}},
{"type":"Feature","geometry":{"type":"Point","coordinates":[145.1716094,-38.2234744]},"properties":{"full_id":"n634963096","osm_id":"634963096","osm_type":"node","amenity":"fuel","brand:wikipedia":"en:Caltex Woolworths","website":"https://www.woolworthspetrol.com.au/","brand:wikidata":"Q5023980","brand":"Caltex","name":"Woolworths Petrol"}},
{"type":"Feature","geometry":{"type":"Point","coordinates":[145.1601566,-38.1108412]},"properties":{"full_id":"n634963100","osm_id":"634963100","osm_type":"node","amenity":"fuel","brand:wikipedia":"en:Ampol","website":"https://www.caltex.com.au/","brand:wikidata":"Q4748528","brand":"Ampol","name":"Ampol"}},
{"type":"Feature","geometry":{"type":"Point","coordinates":[145.209092,-38.1423533]},"properties":{"full_id":"n634963105","osm_id":"634963105","osm_type":"node","amenity":"fuel","shop":"convenience","brand:wikipedia":"en:EG Australia","website":"https://www.woolworthspetrol.com.au/","brand:wikidata":"Q5023980","brand":"Ampol","name":"Woolworths Petrol"}},
{"type":"Feature","geometry":{"type":"Point","coordinates":[145.1823986,-37.9952322]},"properties":{"full_id":"n634963175","osm_id":"634963175","osm_type":"node","amenity":"fuel","brand:wikipedia":"en:Caltex","brand:wikidata":"Q277470","brand":"Caltex","name":"Caltex"}},
{"type":"Feature","geometry":{"type":"Point","coordinates":[145.2466424,-38.0456554]},"properties":{"full_id":"n634963199","osm_id":"634963199","osm_type":"node","amenity":"fuel","fuel:octane_98":"yes","fuel:octane_95":"yes","fuel:octane_91":"yes","fuel:lpg":"yes","fuel:e10":"yes","fuel:diesel":"yes","website":"https://www.unitedpetroleum.com.au/","brand":"United","name":"United"}},
{"type":"Feature","geometry":{"type":"Point","coordinates":[145.3015328,-38.0217109]},"properties":{"full_id":"n634963227","osm_id":"634963227","osm_type":"node","amenity":"fuel","fuel:octane_98":"yes","fuel:octane_95":"yes","fuel:octane_91":"yes","fuel:lpg":"yes","fuel:diesel":"yes","brand:wikipedia":"en:EG Australia","website":"https://www.woolworthspetrol.com.au/","operator":"Woolworths","brand:wikidata":"Q5023980","brand":"Ampol","name":"Woolworths Petrol"}},
{"type":"Feature","geometry":{"type":"Point","coordinates":[145.5062114,-38.0649912]},"properties":{"full_id":"n634963237","osm_id":"634963237","osm_type":"node","amenity":"fuel","fuel:octane_98":"yes","fuel:octane_95":"yes","fuel:octane_91":"yes","fuel:lpg":"yes","fuel:e10":"yes","fuel:diesel":"yes","brand:wikipedia":"en:United Petroleum","website":"https://www.unitedpetroleum.com.au/","operator":"United","brand:wikidata":"Q28224393","brand":"United","name":"United"}},
{"type":"Feature","geometry":{"type":"Point","coordinates":[145.2385328,-38.0014704]},"properties":{"full_id":"n634963240","osm_id":"634963240","osm_type":"node","amenity":"fuel"}},
{"type":"Feature","geometry":{"type":"Point","coordinates":[145.2608979,-37.9762276]},"properties":{"full_id":"n634963257","osm_id":"634963257","osm_type":"node","amenity":"fuel","brand:wikipedia":"en:Caltex","website":"https://www.caltex.com.au/","brand:wikidata":"Q277470","brand":"Caltex","name":"Caltex"}},
{"type":"Feature","geometry":{"type":"Point","coordinates":[144.507556,-37.962044]},"properties":{"full_id":"n634963365","osm_id":"634963365","osm_type":"node","amenity":"fuel","building":"yes"}},
{"type":"Feature","geometry":{"type":"Point","coordinates":[144.6309919,-37.927659]},"properties":{"full_id":"n634963377","osm_id":"634963377","osm_type":"node","amenity":"fuel","website":"https://www.caltex.com.au/","name":"Caltex"}},
{"type":"Feature","geometry":{"type":"Point","coordinates":[144.7657825,-37.6951365]},"properties":{"full_id":"n634963381","osm_id":"634963381","osm_type":"node","amenity":"fuel","brand:wikidata":"Q4748528","brand":"Ampol","name":"Ampol"}},
{"type":"Feature","geometry":{"type":"Point","coordinates":[145.0761365,-37.9544084]},"properties":{"full_id":"n634963448","osm_id":"634963448","osm_type":"node","amenity":"fuel","brand:wikipedia":"en:Caltex","website":"https://www.caltex.com.au/","brand:wikidata":"Q277470","brand":"Caltex","name":"Caltex"}},
{"type":"Feature","geometry":{"type":"Point","coordinates":[145.0672034,-37.9070228]},"properties":{"full_id":"n634963490","osm_id":"634963490","osm_type":"node","amenity":"fuel"}},
{"type":"Feature","geometry":{"type":"Point","coordinates":[144.9393695,-37.6415308]},"properties":{"full_id":"n634963682","osm_id":"634963682","osm_type":"node","amenity":"fuel","full_name":"Woolworths Petrol Roxburgh Park","website":"https://www.woolworthspetrol.com.au/","name":"Caltex Petrol"}},
{"type":"Feature","geometry":{"type":"Point","coordinates":[145.1124921,-37.7732009]},"properties":{"full_id":"n634963742","osm_id":"634963742","osm_type":"node","amenity":"fuel","brand:wikipedia":"en:Caltex","brand:wikidata":"Q277470","brand":"Caltex","name":"Caltex"}},
{"type":"Feature","geometry":{"type":"Point","coordinates":[145.1706044,-37.790357]},"properties":{"full_id":"n634963774","osm_id":"634963774","osm_type":"node","amenity":"fuel","full_name":"Caltex Doncaster East","self_service":"yes","fuel:octane_98":"yes","fuel:octane_95":"yes","fuel:octane_91":"yes","fuel:lpg":"yes","fuel:diesel":"yes","brand:wikipedia":"en:Caltex","website":"https://www.caltex.com.au/","brand:wikidata":"Q277470","brand":"Caltex","addr:suburb":"Dncaster East","addr:street":"Doncaster Road","addr:state":"VIC","addr:postcode":"3109","addr:housenumber":"1100","name":"Caltex"}},
{"type":"Feature","geometry":{"type":"Point","coordinates":[145.2621693,-37.8413263]},"properties":{"full_id":"n634963822","osm_id":"634963822","osm_type":"node","amenity":"fuel","brand:wikipedia":"en:EG Australia","website":"https://www.woolworthspetrol.com.au/","brand:wikidata":"Q5023980","brand":"Ampol","name":"Woolworths Petrol"}},
{"type":"Feature","geometry":{"type":"Point","coordinates":[145.2851487,-37.8621351]},"properties":{"full_id":"n634963937","osm_id":"634963937","osm_type":"node","amenity":"fuel","self_service":"yes","brand:wikipedia":"en:Caltex","website":"https://www.woolworthspetrol.com.au/","brand:wikidata":"Q277470","brand":"Caltex","addr:suburb":"Boronia","addr:street":"Boronia Road","addr:state":"VIC","addr:postcode":"3155","addr:housenumber":"121","name":"Caltex"}},
{"type":"Feature","geometry":{"type":"Point","coordinates":[145.3757474,-37.6539852]},"properties":{"full_id":"n634963961","osm_id":"634963961","osm_type":"node","amenity":"fuel","brand:wikipedia":"en:Caltex","brand:wikidata":"Q277470","brand":"Caltex","name":"Caltex"}},
{"type":"Feature","geometry":{"type":"Point","coordinates":[145.3552538,-37.7577878]},"properties":{"full_id":"n634964016","osm_id":"634964016","osm_type":"node","amenity":"fuel","self_service":"yes","fuel:octane_98":"yes","fuel:octane_95":"yes","fuel:octane_91":"yes","fuel:lpg":"yes","fuel:diesel":"yes","brand:wikipedia":"en:Ampol","website":"https://www.ampol.com.au/service-stations/convenience-stores/foodary","brand:wikidata":"Q4748528","brand":"Ampol","addr:suburb":"Lilydale","addr:street":"Main Street","addr:state":"VIC","addr:postcode":"3140","addr:housenumber":"346","name":"Ampol"}},
{"type":"Feature","geometry":{"type":"Point","coordinates":[145.0774243,-38.258503]},"properties":{"full_id":"n667792116","osm_id":"667792116","osm_type":"node","amenity":"fuel","brand:wikipedia":"en:United Petroleum","website":"https://www.unitedpetroleum.com.au/","brand:wikidata":"Q28224393","brand":"United","name":"United"}},
{"type":"Feature","geometry":{"type":"Point","coordinates":[145.1095744,-38.0173055]},"properties":{"full_id":"n683757964","osm_id":"683757964","osm_type":"node","amenity":"fuel","fuel:discount":"ritchies IGA","full_name":"BP Aspendale","addr:city":"Aspendale Gardens","phone":"+61-3-95875866","fuel:octane_98":"yes","fuel:octane_91":"yes","fuel:diesel":"yes","amenity:atm":"yes","brand:wikipedia":"en:BP","website":"www.bp.com.au","brand:wikidata":"Q152057","brand":"BP","addr:street":"Langslow Road","addr:postcode":"3195","addr:housenumber":"2-4","name":"BP"}},
{"type":"Feature","geometry":{"type":"Point","coordinates":[144.9385246,-37.6414416]},"properties":{"full_id":"n724946417","osm_id":"724946417","osm_type":"node","amenity":"fuel","website":"https://www.unitedpetroleum.com.au/","name":"United Dealer"}},
{"type":"Feature","geometry":{"type":"Point","coordinates":[144.9917652,-37.9129386]},"properties":{"full_id":"n747047022","osm_id":"747047022","osm_type":"node","amenity":"fuel","name":"Brighton Petroleum"}},
{"type":"Feature","geometry":{"type":"Point","coordinates":[145.0246704,-37.9320933]},"properties":{"full_id":"n752582605","osm_id":"752582605","osm_type":"node","amenity":"fuel","brand:wikipedia":"en:7-Eleven","website":"https://www.7eleven.com.au/","operator":"7-Eleven","brand:wikidata":"Q259340","brand":"7-Eleven","name":"7-Eleven"}},
{"type":"Feature","geometry":{"type":"Point","coordinates":[145.2949289,-38.0187212]},"properties":{"full_id":"n771024372","osm_id":"771024372","osm_type":"node","amenity":"fuel","fuel:octane_95":"yes","fuel:octane_91":"yes","fuel:lpg":"yes","fuel:diesel":"yes","operator":"BP","name":"BP"}},
{"type":"Feature","geometry":{"type":"Point","coordinates":[145.3901025,-38.0730203]},"properties":{"full_id":"n830976695","osm_id":"830976695","osm_type":"node","amenity":"fuel","brand:wikipedia":"en:BP","website":"www.bp.com.au","operator":"BP","brand:wikidata":"Q152057","brand":"BP","name":"BP - AA Officer South Inbound"}},
{"type":"Feature","geometry":{"type":"Point","coordinates":[144.8310075,-37.8666026]},"properties":{"full_id":"n885893446","osm_id":"885893446","osm_type":"node","amenity":"fuel"}},
{"type":"Feature","geometry":{"type":"Point","coordinates":[145.5378467,-37.9486055]},"properties":{"full_id":"n895564867","osm_id":"895564867","osm_type":"node","amenity":"fuel","name":"Independent"}},
{"type":"Feature","geometry":{"type":"Point","coordinates":[144.9878837,-37.797388]},"properties":{"full_id":"n995570454","osm_id":"995570454","osm_type":"node","amenity":"fuel","self_service":"yes","car_wash":"no","atm":"yes","addr:city":"Collingwood","phone":"+61 3 94175093","brand:wikipedia":"en:Metro Cash & Carry","brand:wikidata":"Q13610282","brand":"METRO","addr:street":"Wellington Street","addr:postcode":"3066","addr:housenumber":"318","name":"Metro"}},
{"type":"Feature","geometry":{"type":"Point","coordinates":[144.9800029,-37.8082172]},"properties":{"full_id":"n1009793950","osm_id":"1009793950","osm_type":"node","amenity":"fuel","full_name":"Liberty Fitzroy","website":"http://www.libertypetroleum.com","name":"Liberty"}},
{"type":"Feature","geometry":{"type":"Point","coordinates":[145.0223348,-37.9466312]},"properties":{"full_id":"n1019267496","osm_id":"1019267496","osm_type":"node","amenity":"fuel","payment:visa":"yes","payment:notes":"yes","payment:mastercard":"yes","payment:debit_cards":"yes","payment:credit_cards":"yes","payment:coins":"yes","payment:cash":"yes","building":"yes","self_service":"yes","brand:wikipedia":"en:7-Eleven","opening_hours":"24/7","brand:wikidata":"Q259340","brand":"7-Eleven","addr:suburb":"Hampton","addr:street":"Highett Road","addr:state":"VIC","addr:postcode":"3188","addr:housenumber":"108","name":"7-Eleven"}},
{"type":"Feature","geometry":{"type":"Point","coordinates":[145.2397086,-38.0017187]},"properties":{"full_id":"n1025833610","osm_id":"1025833610","osm_type":"node","amenity":"fuel","brand:wikipedia":"en:Coles Express","operator":"Pentaco","brand:wikidata":"Q5144653","brand":"Coles Express","name":"Coles Express"}},
{"type":"Feature","geometry":{"type":"Point","coordinates":[145.0756121,-37.6512127]},"properties":{"full_id":"n1027548388","osm_id":"1027548388","osm_type":"node","amenity":"fuel","brand:wikipedia":"en:Caltex Woolworths","website":"https://www.woolworthspetrol.com.au/","operator":"Woolworths","brand:wikidata":"Q5023980","brand":"Caltex","name":"Woolworths Petrol"}},
{"type":"Feature","geometry":{"type":"Point","coordinates":[144.9058683,-37.7708777]},"properties":{"full_id":"n1107369860","osm_id":"1107369860","osm_type":"node","amenity":"fuel","addr:country":"AU","addr:city":"Ascot Vale","fuel:biodiesel":"no","caltex:starcash":"no","caltex:address":"1 Epsom Road, Ascot Vale VIC 3032","toilets":"no","rent:lpg_bottles":"no","phone":"+61-3-93700099","fuel:octane_98":"yes","fuel:octane_95":"yes","fuel:octane_91":"yes","fuel:lpg":"yes","fuel:e10":"no","fuel:diesel":"no","fuel:GTL_diesel":"yes","amenity:truck_stop":"no","amenity:eftpos":"yes","amenity:carwash":"no","amenity:atm":"no","operator":"Caltex","addr:street":"Epsom Road","addr:postcode":"3032","addr:housenumber":"1","name":"Caltex Ascot Vale"}},
{"type":"Feature","geometry":{"type":"Point","coordinates":[144.8848897,-38.3790476]},"properties":{"full_id":"n1203922796","osm_id":"1203922796","osm_type":"node","amenity":"fuel","name":"Peninsula Gas and Fuel"}},
{"type":"Feature","geometry":{"type":"Point","coordinates":[145.3867846,-38.0700494]},"properties":{"full_id":"n1221058766","osm_id":"1221058766","osm_type":"node","amenity":"fuel","brand:wikipedia":"en:BP","website":"www.bp.com.au","operator":"BP","brand:wikidata":"Q152057","brand":"BP","name":"BP - AA Officer South Outbound"}},
{"type":"Feature","geometry":{"type":"Point","coordinates":[145.2725974,-38.0749411]},"properties":{"full_id":"n1235952467","osm_id":"1235952467","osm_type":"node","amenity":"fuel","brand:wikipedia":"en:7-Eleven","website":"https://www.7eleven.com.au/","brand:wikidata":"Q259340","brand":"7-Eleven","name":"7-Eleven"}},
{"type":"Feature","geometry":{"type":"Point","coordinates":[145.0523189,-37.9200635]},"properties":{"full_id":"n1240454726","osm_id":"1240454726","osm_type":"node","amenity":"fuel","brand:wikipedia":"en:United Petroleum","website":"https://www.unitedpetroleum.com.au/","brand:wikidata":"Q28224393","brand":"United","name":"United"}},
{"type":"Feature","geometry":{"type":"Point","coordinates":[145.0449792,-37.7582295]},"properties":{"full_id":"n1256661568","osm_id":"1256661568","osm_type":"node","amenity":"fuel","fuel:diesel":"yes","name":"Ivanhoe Fuel"}},
{"type":"Feature","geometry":{"type":"Point","coordinates":[145.2359854,-37.8685946]},"properties":{"full_id":"n1282626764","osm_id":"1282626764","osm_type":"node","amenity":"fuel","brand:wikipedia":"en:7-Eleven","website":"https://www.7eleven.com.au/","operator":"7-Eleven","brand:wikidata":"Q259340","brand":"7-Eleven","name":"7-Eleven"}},
{"type":"Feature","geometry":{"type":"Point","coordinates":[145.0789505,-37.8818906]},"properties":{"full_id":"n1301362149","osm_id":"1301362149","osm_type":"node","amenity":"fuel","addr:street":"Chadstone Road","addr:housenumber":"61"}},
{"type":"Feature","geometry":{"type":"Point","coordinates":[145.1148622,-37.5151555]},"properties":{"full_id":"n1415728902","osm_id":"1415728902","osm_type":"node","amenity":"fuel","brand:wikipedia":"en:United Petroleum","brand:wikidata":"Q28224393","brand":"United","name":"United"}},
{"type":"Feature","geometry":{"type":"Point","coordinates":[145.0116992,-37.7706384]},"properties":{"full_id":"n1427102337","osm_id":"1427102337","osm_type":"node","amenity":"fuel","brand:wikipedia":"en:7-Eleven","website":"https://www.7eleven.com.au/","brand:wikidata":"Q259340","brand":"7-Eleven","name":"7-Eleven"}},
{"type":"Feature","geometry":{"type":"Point","coordinates":[145.0857942,-37.7310613]},"properties":{"full_id":"n1470239772","osm_id":"1470239772","osm_type":"node","amenity":"fuel","name":"Quiks Service Station"}},
{"type":"Feature","geometry":{"type":"Point","coordinates":[145.2333827,-38.2024458]},"properties":{"full_id":"n1557899321","osm_id":"1557899321","osm_type":"node","amenity":"fuel","brand:wikipedia":"en:BP","operator":"BP","brand:wikidata":"Q152057","brand":"BP","name":"BP"}},
{"type":"Feature","geometry":{"type":"Point","coordinates":[145.2141844,-37.9125404]},"properties":{"full_id":"n1561057381","osm_id":"1561057381","osm_type":"node","amenity":"fuel","brand:wikipedia":"en:BP","website":"www.bp.com.au","operator":"AA Holdings","brand:wikidata":"Q152057","brand":"BP","name":"BP AA Eastlink Inbound"}},
{"type":"Feature","geometry":{"type":"Point","coordinates":[145.2338922,-38.1088327]},"properties":{"full_id":"n1583416608","osm_id":"1583416608","osm_type":"node","amenity":"fuel","website":"www.apco.com.au","brand":"APCO","name":"APCO"}},
{"type":"Feature","geometry":{"type":"Point","coordinates":[145.018062,-37.9759705]},"properties":{"full_id":"n1608337026","osm_id":"1608337026","osm_type":"node","amenity":"fuel"}},
{"type":"Feature","geometry":{"type":"Point","coordinates":[144.7283525,-37.8940411]},"properties":{"full_id":"n1655539399","osm_id":"1655539399","osm_type":"node","amenity":"fuel","fuel:biogas":"no","fuel:biodiesel":"no","fuel:octane_98":"yes","fuel:octane_95":"yes","fuel:octane_91":"yes","fuel:lpg":"yes","fuel:e10":"yes","fuel:diesel":"yes","brand":"7 Eleven","name":"7-Eleven"}},
{"type":"Feature","geometry":{"type":"Point","coordinates":[145.2848371,-37.8868185]},"properties":{"full_id":"n1723908797","osm_id":"1723908797","osm_type":"node","amenity":"fuel","building":"yes","addr:city":"Melbourne","addr:suburb":"Ferntree Gully","addr:street":"Burwood Highway","addr:postcode":"3156","addr:housenumber":"962","name":"Petrogas"}},
{"type":"Feature","geometry":{"type":"Point","coordinates":[145.4945109,-38.0285586]},"properties":{"full_id":"n1740283283","osm_id":"1740283283","osm_type":"node","amenity":"fuel","fuel:diesel":"no"}},
{"type":"Feature","geometry":{"type":"Point","coordinates":[145.0220129,-37.9456476]},"properties":{"full_id":"n1749685841","osm_id":"1749685841","osm_type":"node","amenity":"fuel","brand:wikipedia":"en:BP","operator":"BP","brand:wikidata":"Q152057","brand":"BP","name":"BP"}},
{"type":"Feature","geometry":{"type":"Point","coordinates":[145.0242785,-37.9368704]},"properties":{"full_id":"n1749687128","osm_id":"1749687128","osm_type":"node","amenity":"fuel","brand:wikipedia":"en:Coles Express","operator":"Coles Express","brand:wikidata":"Q5144653","brand":"Coles Express","name":"Coles Express"}},
{"type":"Feature","geometry":{"type":"Point","coordinates":[144.9978805,-37.884093]},"properties":{"full_id":"n1750511056","osm_id":"1750511056","osm_type":"node","amenity":"fuel","brand:wikidata":"Q4748528","brand":"Ampol","name":"Ampol"}},
{"type":"Feature","geometry":{"type":"Point","coordinates":[145.1594905,-37.9180161]},"properties":{"full_id":"n1752469944","osm_id":"1752469944","osm_type":"node","amenity":"fuel","brand:wikipedia":"en:BP","brand:wikidata":"Q152057","brand":"BP","name":"BP"}},
{"type":"Feature","geometry":{"type":"Point","coordinates":[145.1396975,-37.9166455]},"properties":{"full_id":"n1782070940","osm_id":"1782070940","osm_type":"node","amenity":"fuel","brand:wikipedia":"en:United Petroleum","website":"https://www.liberty.com.au/","brand:wikidata":"Q28224393","brand":"United","name":"United"}},
{"type":"Feature","geometry":{"type":"Point","coordinates":[145.1345993,-37.8413057]},"properties":{"full_id":"n1828643642","osm_id":"1828643642","osm_type":"node","amenity":"fuel","operator":"United","brand":"United","name":"United"}},
{"type":"Feature","geometry":{"type":"Point","coordinates":[144.8243566,-37.8231438]},"properties":{"full_id":"n1833721408","osm_id":"1833721408","osm_type":"node","amenity":"fuel","brand:wikipedia":"en:Coles Express","website":"https://www.colesexpress.com.au/","operator":"Shell","brand:wikidata":"Q5144653","brand":"Coles Express","name":"Coles Express"}},
{"type":"Feature","geometry":{"type":"Point","coordinates":[145.3111714,-37.8025208]},"properties":{"full_id":"n1845296190","osm_id":"1845296190","osm_type":"node","amenity":"fuel","brand:wikipedia":"en:Caltex Woolworths","brand:wikidata":"Q5023980","brand":"Caltex","name":"Woolworths Petrol"}},
{"type":"Feature","geometry":{"type":"Point","coordinates":[145.0906448,-37.6492413]},"properties":{"full_id":"n1869303202","osm_id":"1869303202","osm_type":"node","amenity":"fuel","brand:wikipedia":"en:7-Eleven","website":"https://www.7eleven.com.au/","brand:wikidata":"Q259340","brand":"7-Eleven","name":"7-Eleven"}},
{"type":"Feature","geometry":{"type":"Point","coordinates":[145.0015359,-37.9446984]},"properties":{"full_id":"n1902101276","osm_id":"1902101276","osm_type":"node","amenity":"fuel","name":"Woolworths"}},
{"type":"Feature","geometry":{"type":"Point","coordinates":[144.8296822,-37.781322]},"properties":{"full_id":"n1902175524","osm_id":"1902175524","osm_type":"node","amenity":"fuel","brand:wikipedia":"en:Caltex Woolworths","operator":"Caltex","brand:wikidata":"Q5023980","brand":"Caltex","name":"Woolworths Petrol"}},
{"type":"Feature","geometry":{"type":"Point","coordinates":[145.1325912,-37.8531316]},"properties":{"full_id":"n1911024995","osm_id":"1911024995","osm_type":"node","amenity":"fuel","brand:wikipedia":"en:EG Australia","website":"https://www.woolworthspetrol.com.au/","brand:wikidata":"Q5023980","brand":"Ampol","name":"Woolworths Petrol"}},
{"type":"Feature","geometry":{"type":"Point","coordinates":[144.5675842,-37.6850795]},"properties":{"full_id":"n1912619609","osm_id":"1912619609","osm_type":"node","amenity":"fuel"}},
{"type":"Feature","geometry":{"type":"Point","coordinates":[145.2173227,-37.9137742]},"properties":{"full_id":"n1933462956","osm_id":"1933462956","osm_type":"node","amenity":"fuel","brand:wikipedia":"en:BP","website":"www.bp.com.au","operator":"AA Holdings","brand:wikidata":"Q152057","brand":"BP","name":"BP AA Eastlink Outbound"}},
{"type":"Feature","geometry":{"type":"Point","coordinates":[145.0583077,-37.8238532]},"properties":{"full_id":"n1933506902","osm_id":"1933506902","osm_type":"node","amenity":"fuel","brand:wikipedia":"en:Coles Express","brand:wikidata":"Q5144653","brand":"Coles Express","name":"Coles Express"}},
{"type":"Feature","geometry":{"type":"Point","coordinates":[144.9990422,-37.6784622]},"properties":{"full_id":"n1935245361","osm_id":"1935245361","osm_type":"node","amenity":"fuel","fuel:lpg":"yes","fuel:diesel":"yes","brand":"7-Eleven","addr:street":"Edgars Road","addr:housenumber":"118","name":"7-Eleven Thomastown"}},
{"type":"Feature","geometry":{"type":"Point","coordinates":[144.9273237,-37.7732126]},"properties":{"full_id":"n1998363616","osm_id":"1998363616","osm_type":"node","amenity":"fuel","brand:wikipedia":"en:7-Eleven","website":"https://www.7eleven.com.au/","brand:wikidata":"Q259340","brand":"7-Eleven","name":"7-Eleven"}},
{"type":"Feature","geometry":{"type":"Point","coordinates":[145.2784066,-37.8826037]},"properties":{"full_id":"n2056720870","osm_id":"2056720870","osm_type":"node","amenity":"fuel","brand:wikipedia":"en:BP","website":"www.bp.com.au","brand:wikidata":"Q152057","brand":"BP","name":"BP"}},
{"type":"Feature","geometry":{"type":"Point","coordinates":[144.984574,-37.782176]},"properties":{"full_id":"n2057008288","osm_id":"2057008288","osm_type":"node","amenity":"fuel","addr:country":"AU","building":"yes","car_wash":"yes","atm":"yes","addr:city":"Fitzroy North","phone":"+61 3 94816185","website":"http://www.bp.com.au/","operator":"BP","brand":"BP","addr:street":"St Georges Road","addr:state":"VIC","addr:postcode":"3068","addr:housenumber":"257","name":"AA North Fitzroy"}},
{"type":"Feature","geometry":{"type":"Point","coordinates":[145.1409442,-37.8089844]},"properties":{"full_id":"n2080719508","osm_id":"2080719508","osm_type":"node","amenity":"fuel","brand:wikipedia":"en:Coles Express","website":"https://www.colesexpress.com.au/","brand:wikidata":"Q5144653","brand":"Coles Express","name":"Coles Express"}},
{"type":"Feature","geometry":{"type":"Point","coordinates":[145.1239844,-37.8987891]},"properties":{"full_id":"n2094301355","osm_id":"2094301355","osm_type":"node","amenity":"fuel","fuel:octane_98":"yes","fuel:octane_91":"yes","fuel:diesel":"yes","brand:wikipedia":"en:BP","brand:wikidata":"Q152057","brand":"BP","name":"BP"}},
{"type":"Feature","geometry":{"type":"Point","coordinates":[144.970755,-37.797729]},"properties":{"full_id":"n2103425268","osm_id":"2103425268","osm_type":"node","amenity":"fuel","addr:city":"Carlton","phone":"+61 3 93475193","fuel:octane_98":"yes","fuel:octane_95":"yes","fuel:lpg":"yes","fuel:diesel":"yes","brand:wikipedia":"en:BP","website":"https://www.bp.com/","operator":"BP","brand:wikidata":"Q152057","brand":"BP","addr:street":"Elgin Street","addr:postcode":"3053","addr:housenumber":"117","name":"BP"}},
{"type":"Feature","geometry":{"type":"Point","coordinates":[144.979829,-37.798296]},"properties":{"full_id":"n2108183545","osm_id":"2108183545","osm_type":"node","amenity":"fuel","wheelchair":"yes","car_wash":"no","compressed_air":"yes","brand:wikipedia":"en:BP","brand:wikidata":"Q152057","brand":"BP","name":"BP Fitzroy"}},
{"type":"Feature","geometry":{"type":"Point","coordinates":[145.0311011,-37.7486812]},"properties":{"full_id":"n2131757127","osm_id":"2131757127","osm_type":"node","amenity":"fuel","name":"Liberty"}},
{"type":"Feature","geometry":{"type":"Point","coordinates":[145.019747,-37.771575]},"properties":{"full_id":"n2131827274","osm_id":"2131827274","osm_type":"node","amenity":"fuel","name":"Metco"}},
{"type":"Feature","geometry":{"type":"Point","coordinates":[145.1068208,-38.0343834]},"properties":{"full_id":"n2131868739","osm_id":"2131868739","osm_type":"node","amenity":"fuel","fuel:octane_91":"yes","fuel:diesel":"yes","brand:wikipedia":"en:BP","operator":"BP Stationvale Pty Ltd","brand:wikidata":"Q152057","brand":"BP","name":"BP"}},
{"type":"Feature","geometry":{"type":"Point","coordinates":[145.2425869,-37.9735956]},"properties":{"full_id":"n2149821422","osm_id":"2149821422","osm_type":"node","amenity":"fuel","brand:wikipedia":"en:7-Eleven","website":"https://www.7eleven.com.au/","brand:wikidata":"Q259340","brand":"7-Eleven","name":"7-Eleven"}},
{"type":"Feature","geometry":{"type":"Point","coordinates":[145.3586499,-37.9318009]},"properties":{"full_id":"n2160359084","osm_id":"2160359084","osm_type":"node","amenity":"fuel","name":"Broad Fuel"}},
{"type":"Feature","geometry":{"type":"Point","coordinates":[145.126231,-38.108813]},"properties":{"full_id":"n2172680832","osm_id":"2172680832","osm_type":"node","entrance":"main"}},
{"type":"Feature","geometry":{"type":"Point","coordinates":[144.6804611,-37.7389816]},"properties":{"full_id":"n2176222412","osm_id":"2176222412","osm_type":"node","amenity":"fuel","brand:wikipedia":"en:BP","website":"www.bp.com.au","operator":"BP","brand:wikidata":"Q152057","brand":"BP","name":"BP"}},
{"type":"Feature","geometry":{"type":"Point","coordinates":[145.1078561,-37.8550131]},"properties":{"full_id":"n2178284959","osm_id":"2178284959","osm_type":"node","amenity":"fuel","alt_name":"Better Choice","addr:city":"Melbourne","addr:suburb":"Burwood","addr:street":"Highbury Road","addr:postcode":"3125","name":"Better Choice Shop"}},
{"type":"Feature","geometry":{"type":"Point","coordinates":[144.752268,-37.8964776]},"properties":{"full_id":"n2183358102","osm_id":"2183358102","osm_type":"node","amenity":"fuel","brand:wikipedia":"en:Coles Express","website":"https://www.colesexpress.com.au/","brand:wikidata":"Q5144653","brand":"Coles Express","name":"Coles Express"}},
{"type":"Feature","geometry":{"type":"Point","coordinates":[144.7041951,-37.8806992]},"properties":{"full_id":"n2187867645","osm_id":"2187867645","osm_type":"node","amenity":"fuel","brand:wikipedia":"en:Caltex","brand:wikidata":"Q277470","brand":"Caltex","name":"Caltex"}},
{"type":"Feature","geometry":{"type":"Point","coordinates":[144.704114,-37.8800553]},"properties":{"full_id":"n2187867751","osm_id":"2187867751","osm_type":"node","amenity":"fuel","brand:wikipedia":"en:7-Eleven","brand:wikidata":"Q259340","brand":"7-Eleven","name":"7-Eleven"}},
{"type":"Feature","geometry":{"type":"Point","coordinates":[145.6961877,-37.7533056]},"properties":{"full_id":"n2203130548","osm_id":"2203130548","osm_type":"node","amenity":"fuel","brand:wikipedia":"en:Royal Dutch Shell","brand:wikidata":"Q154950","brand":"Shell","name":"Shell"}},
{"type":"Feature","geometry":{"type":"Point","coordinates":[145.0534752,-37.6619813]},"properties":{"full_id":"n2210835407","osm_id":"2210835407","osm_type":"node","amenity":"fuel","brand:wikipedia":"en:7-Eleven","brand:wikidata":"Q259340","brand":"7-Eleven","name":"7-Eleven"}},
{"type":"Feature","geometry":{"type":"Point","coordinates":[144.9932533,-37.6479527]},"properties":{"full_id":"n2212784043","osm_id":"2212784043","osm_type":"node","amenity":"fuel","website":"www.bp.com.au","name":"BP"}},
{"type":"Feature","geometry":{"type":"Point","coordinates":[145.2841378,-37.7992804]},"properties":{"full_id":"n2235799035","osm_id":"2235799035","osm_type":"node","amenity":"fuel","self_service":"yes","phone":"+61 3 9723 4324","fuel:octane_98":"yes","fuel:octane_95":"yes","fuel:octane_91":"yes","fuel:diesel":"yes","brand:wikipedia":"en:BP","website":"https://map.bp.com/en-AU/AU/gas-station/croydon/aa-croydon/3877","opening_hours":"24/7","brand:wikidata":"Q152057","brand":"BP","addr:suburb":"Croydon","addr:street":"Mount Dandenong Road","addr:state":"VIC","addr:postcode":"3136","addr:housenumber":"244","name":"BP"}},
{"type":"Feature","geometry":{"type":"Point","coordinates":[144.7791399,-37.7416599]},"properties":{"full_id":"n2298933301","osm_id":"2298933301","osm_type":"node","amenity":"fuel","operator":"7-Eleven"}},
{"type":"Feature","geometry":{"type":"Point","coordinates":[144.7797153,-37.7421621]},"properties":{"full_id":"n2298933310","osm_id":"2298933310","osm_type":"node","amenity":"fuel","operator":"shell"}},
{"type":"Feature","geometry":{"type":"Point","coordinates":[145.2406195,-38.0229096]},"properties":{"full_id":"n2322516979","osm_id":"2322516979","osm_type":"node","amenity":"fuel","operator":"United","brand":"United","name":"United"}},
{"type":"Feature","geometry":{"type":"Point","coordinates":[145.2409668,-38.0214931]},"properties":{"full_id":"n2322517022","osm_id":"2322517022","osm_type":"node","amenity":"fuel","brand":"Mobil","name":"Mobil"}},
{"type":"Feature","geometry":{"type":"Point","coordinates":[145.2448076,-38.0310699]},"properties":{"full_id":"n2322686945","osm_id":"2322686945","osm_type":"node","amenity":"fuel","brand:wikipedia":"en:Caltex","website":"https://www.caltex.com.au/","brand:wikidata":"Q277470","brand":"Caltex","name":"Caltex"}},
{"type":"Feature","geometry":{"type":"Point","coordinates":[145.5682727,-37.7803775]},"properties":{"full_id":"n2377860063","osm_id":"2377860063","osm_type":"node","amenity":"fuel","brand:wikipedia":"en:Caltex","brand:wikidata":"Q277470","brand":"Caltex","name":"Caltex"}},
{"type":"Feature","geometry":{"type":"Point","coordinates":[145.5579596,-37.787286]},"properties":{"full_id":"n2377863799","osm_id":"2377863799","osm_type":"node","amenity":"fuel","name":"BP"}},
{"type":"Feature","geometry":{"type":"Point","coordinates":[145.1297705,-37.9296839]},"properties":{"full_id":"n2405958831","osm_id":"2405958831","osm_type":"node","amenity":"fuel","phone":"+61395446031","fuel:octane_98":"yes","fuel:octane_95":"yes","fuel:octane_91":"yes","fuel:e10":"yes","fuel:diesel":"yes","brand:wikipedia":"en:Royal Dutch Shell","website":"shell.com.au","operator":"Shell","brand:wikidata":"Q154950","brand":"Shell","addr:suburb":"Clayton","addr:street":"Centre Road","addr:state":"VIC","addr:postcode":"3168","addr:housenumber":"1487-1489","name":"Shell Clayton"}},
{"type":"Feature","geometry":{"type":"Point","coordinates":[144.6769913,-37.9092749]},"properties":{"full_id":"n2408804166","osm_id":"2408804166","osm_type":"node","amenity":"fuel","brand":"7 Eleven"}},
{"type":"Feature","geometry":{"type":"Point","coordinates":[144.910176,-37.7437633]},"properties":{"full_id":"n2442948367","osm_id":"2442948367","osm_type":"node","amenity":"fuel","brand:wikipedia":"en:7-Eleven","website":"www.7-eleven.com.au","brand:wikidata":"Q259340","brand":"7-Eleven","name":"7-Eleven"}},
{"type":"Feature","geometry":{"type":"Point","coordinates":[144.9797162,-37.7422826]},"properties":{"full_id":"n2471125603","osm_id":"2471125603","osm_type":"node","amenity":"fuel","brand:wikipedia":"en:7-Eleven","website":"https://www.7eleven.com.au/","brand:wikidata":"Q259340","brand":"7-Eleven","name":"7-Eleven"}},
{"type":"Feature","geometry":{"type":"Point","coordinates":[144.9864503,-37.714064]},"properties":{"full_id":"n2477811553","osm_id":"2477811553","osm_type":"node","amenity":"fuel"}},
{"type":"Feature","geometry":{"type":"Point","coordinates":[144.8337666,-37.7779232]},"properties":{"full_id":"n2490581576","osm_id":"2490581576","osm_type":"node","amenity":"fuel","brand:wikipedia":"en:7-Eleven","website":"https://www.7eleven.com.au/","brand:wikidata":"Q259340","brand":"7-Eleven","name":"7-Eleven"}},
{"type":"Feature","geometry":{"type":"Point","coordinates":[144.955403,-37.674449]},"properties":{"full_id":"n2491905322","osm_id":"2491905322","osm_type":"node","amenity":"fuel","fuel:octane_98":"yes","fuel:octane_95":"yes","fuel:octane_91":"yes","fuel:lpg":"yes","fuel:e10":"yes","fuel:diesel":"yes","brand:wikipedia":"en:7-Eleven","website":"https://www.7eleven.com.au/","brand:wikidata":"Q259340","brand":"7-Eleven","name":"7-Eleven"}},
{"type":"Feature","geometry":{"type":"Point","coordinates":[144.9719602,-37.7313347]},"properties":{"full_id":"n2497295545","osm_id":"2497295545","osm_type":"node","amenity":"fuel","fuel:octane_98":"no","fuel:octane_95":"yes","fuel:octane_91":"yes","fuel:diesel":"yes","brand:wikipedia":"en:Caltex","brand:wikidata":"Q277470","brand":"Caltex","name":"Caltex"}},
{"type":"Feature","geometry":{"type":"Point","coordinates":[145.2944788,-38.0850183]},"properties":{"full_id":"n2612862474","osm_id":"2612862474","osm_type":"node","amenity":"fuel","brand:wikipedia":"en:BP","website":"www.bp.com.au","brand:wikidata":"Q152057","brand":"BP","name":"BP"}},
{"type":"Feature","geometry":{"type":"Point","coordinates":[145.1605226,-37.9636864]},"properties":{"full_id":"n2622213053","osm_id":"2622213053","osm_type":"node","amenity":"fuel","brand":"BP","name":"BP"}},
{"type":"Feature","geometry":{"type":"Point","coordinates":[145.1728015,-37.9651563]},"properties":{"full_id":"n2622213129","osm_id":"2622213129","osm_type":"node","amenity":"fuel","brand:wikipedia":"en:7-Eleven","website":"https://www.7eleven.com.au/","brand:wikidata":"Q259340","brand":"7-Eleven","name":"7-Eleven"}},
{"type":"Feature","geometry":{"type":"Point","coordinates":[145.3892625,-37.7576823]},"properties":{"full_id":"n2641912969","osm_id":"2641912969","osm_type":"node","amenity":"fuel","self_service":"yes","fuel:octane_98":"yes","fuel:octane_91":"yes","fuel:diesel":"yes","brand:wikipedia":"en:BP","brand:wikidata":"Q152057","brand":"BP","addr:suburb":"Lilydale","addr:street":"Warburton Highway","addr:state":"VIC","addr:postcode":"3140","addr:housenumber":"87","name":"BP"}},
{"type":"Feature","geometry":{"type":"Point","coordinates":[145.1351985,-38.1462253]},"properties":{"full_id":"n2677708534","osm_id":"2677708534","osm_type":"node","amenity":"fuel","brand:wikipedia":"en:United Petroleum","website":"https://www.unitedpetroleum.com.au/","opening_hours":"24/7","brand:wikidata":"Q28224393","brand":"United","name":"United"}},
{"type":"Feature","geometry":{"type":"Point","coordinates":[144.8822117,-37.7754459]},"properties":{"full_id":"n2774441875","osm_id":"2774441875","osm_type":"node","amenity":"fuel","brand:wikipedia":"en:Caltex","brand:wikidata":"Q277470","brand":"Caltex","name":"Caltex"}},
{"type":"Feature","geometry":{"type":"Point","coordinates":[144.8513085,-37.7285589]},"properties":{"full_id":"n2918274708","osm_id":"2918274708","osm_type":"node","power":"pole"}},
{"type":"Feature","geometry":{"type":"Point","coordinates":[144.6065823,-37.6839871]},"properties":{"full_id":"n2921301861","osm_id":"2921301861","osm_type":"node","amenity":"fuel","full_name":"Caltex Melton","phone":"+61 3 97476688","brand:wikipedia":"en:Ampol","website":"https://www.caltex.com.au/","brand:wikidata":"Q4748528","brand":"Ampol","name":"Ampol"}},
{"type":"Feature","geometry":{"type":"Point","coordinates":[144.6039797,-37.6897995]},"properties":{"full_id":"n2955174482","osm_id":"2955174482","osm_type":"node","amenity":"fuel","brand:wikidata":"Q5023980","brand":"Ampol","name":"Woolworths Petrol"}},
{"type":"Feature","geometry":{"type":"Point","coordinates":[144.95546,-37.667717]},"properties":{"full_id":"n3088719068","osm_id":"3088719068","osm_type":"node","amenity":"fuel","website":"https://www.caltex.com.au/","name":"Caltex"}},
{"type":"Feature","geometry":{"type":"Point","coordinates":[145.1605276,-37.7041302]},"properties":{"full_id":"n3227502931","osm_id":"3227502931","osm_type":"node","amenity":"fuel","name":"BP"}},
{"type":"Feature","geometry":{"type":"Point","coordinates":[145.0838962,-37.7624137]},"properties":{"full_id":"n3238969039","osm_id":"3238969039","osm_type":"node","amenity":"fuel","brand:wikipedia":"en:Caltex","brand:wikidata":"Q277470","brand":"Caltex","name":"Caltex"}},
{"type":"Feature","geometry":{"type":"Point","coordinates":[145.0835305,-37.7629116]},"properties":{"full_id":"n3238969040","osm_id":"3238969040","osm_type":"node","amenity":"fuel"}},
{"type":"Feature","geometry":{"type":"Point","coordinates":[145.0830926,-37.7617266]},"properties":{"full_id":"n3238969041","osm_id":"3238969041","osm_type":"node","amenity":"fuel","name":"Bulleen Fuel"}},
{"type":"Feature","geometry":{"type":"Point","coordinates":[144.9227271,-37.7778161]},"properties":{"full_id":"n3249049197","osm_id":"3249049197","osm_type":"node","amenity":"fuel","name":"Kerby"}},
{"type":"Feature","geometry":{"type":"Point","coordinates":[145.1813901,-37.8559303]},"properties":{"full_id":"n3259656895","osm_id":"3259656895","osm_type":"node","amenity":"fuel","brand:wikipedia":"en:Coles Express","website":"https://www.colesexpress.com.au/","brand:wikidata":"Q5144653","brand":"Coles Express","name":"Coles Express"}},
{"type":"Feature","geometry":{"type":"Point","coordinates":[144.7580219,-37.8775591]},"properties":{"full_id":"n3266655549","osm_id":"3266655549","osm_type":"node","amenity":"fuel"}},
{"type":"Feature","geometry":{"type":"Point","coordinates":[145.0667898,-37.7421317]},"properties":{"full_id":"n3273964726","osm_id":"3273964726","osm_type":"node","amenity":"fuel","brand":"Shell"}},
{"type":"Feature","geometry":{"type":"Point","coordinates":[144.686051,-37.8624935]},"properties":{"full_id":"n3274001461","osm_id":"3274001461","osm_type":"node","amenity":"fuel","brand:wikipedia":"en:Coles Express","website":"https://www.colesexpress.com.au/","brand:wikidata":"Q5144653","brand":"Coles Express","name":"Coles Express"}},
{"type":"Feature","geometry":{"type":"Point","coordinates":[145.2857519,-38.1130772]},"properties":{"full_id":"n3283738114","osm_id":"3283738114","osm_type":"node","amenity":"fuel","brand:wikipedia":"en:United Petroleum","website":"https://www.unitedpetroleum.com.au/","brand:wikidata":"Q28224393","brand":"United","name":"United"}},
{"type":"Feature","geometry":{"type":"Point","coordinates":[145.1484857,-37.9721674]},"properties":{"full_id":"n3295943992","osm_id":"3295943992","osm_type":"node","amenity":"fuel","brand:wikipedia":"en:7-Eleven","website":"https://www.7eleven.com.au/","brand:wikidata":"Q259340","brand":"7-Eleven","name":"7-Eleven"}},
{"type":"Feature","geometry":{"type":"Point","coordinates":[145.2703043,-37.8348442]},"properties":{"full_id":"n3313710767","osm_id":"3313710767","osm_type":"node","amenity":"fuel","brand:wikipedia":"en:BP","brand:wikidata":"Q152057","brand":"BP","addr:suburb":"Bayswater","addr:street":"Bayswater Road","addr:state":"VIC","name":"BP"}},
{"type":"Feature","geometry":{"type":"Point","coordinates":[144.9397339,-37.7894122]},"properties":{"full_id":"n3321876887","osm_id":"3321876887","osm_type":"node","amenity":"fuel","wheelchair":"yes","brand:wikipedia":"en:7-Eleven","website":"www.7-eleven.com.au","opening_hours":"24/7","brand:wikidata":"Q259340","brand":"7-Eleven","name":"7-Eleven"}},
{"type":"Feature","geometry":{"type":"Point","coordinates":[145.0934993,-37.8634]},"properties":{"full_id":"n3329752949","osm_id":"3329752949","osm_type":"node","amenity":"fuel","brand:wikipedia":"en:7-Eleven","website":"https://www.7eleven.com.au/","brand:wikidata":"Q259340","brand":"7-Eleven","name":"7-Eleven"}},
{"type":"Feature","geometry":{"type":"Point","coordinates":[144.7012633,-37.8811543]},"properties":{"full_id":"n3335081219","osm_id":"3335081219","osm_type":"node","amenity":"fuel","brand:wikipedia":"en:BP","brand:wikidata":"Q152057","brand":"BP","name":"BP"}},
{"type":"Feature","geometry":{"type":"Point","coordinates":[144.6889185,-37.8479686]},"properties":{"full_id":"n3338868739","osm_id":"3338868739","osm_type":"node","amenity":"fuel"}},
{"type":"Feature","geometry":{"type":"Point","coordinates":[144.705546,-37.8499185]},"properties":{"full_id":"n3338909457","osm_id":"3338909457","osm_type":"node","amenity":"fuel","brand:wikipedia":"en:Coles Express","website":"https://www.colesexpress.com.au/","brand:wikidata":"Q5144653","brand":"Coles Express","name":"Coles Express"}},
{"type":"Feature","geometry":{"type":"Point","coordinates":[145.2265268,-37.8471349]},"properties":{"full_id":"n3347687938","osm_id":"3347687938","osm_type":"node","amenity":"fuel","website":"https://www.woolworthspetrol.com.au/","brand":"Caltex","name":"Woolworths Petrol"}},
{"type":"Feature","geometry":{"type":"Point","coordinates":[145.1901251,-38.2582817]},"properties":{"full_id":"n3351233182","osm_id":"3351233182","osm_type":"node","amenity":"fuel","fuel:octane_98":"yes","fuel:octane_95":"yes","fuel:octane_91":"yes","fuel:lpg":"yes","fuel:e10":"yes","fuel:diesel":"yes","brand:wikipedia":"en:United Petroleum","brand:wikidata":"Q28224393","brand":"United","name":"United"}},
{"type":"Feature","geometry":{"type":"Point","coordinates":[145.2150123,-37.8763802]},"properties":{"full_id":"n3353505870","osm_id":"3353505870","osm_type":"node","amenity":"fuel","brand:wikipedia":"en:7-Eleven","website":"https://www.7eleven.com.au/","brand:wikidata":"Q259340","brand":"7-Eleven","name":"7-Eleven"}},
{"type":"Feature","geometry":{"type":"Point","coordinates":[145.1700748,-37.8475211]},"properties":{"full_id":"n3367419972","osm_id":"3367419972","osm_type":"node","amenity":"fuel","fuel:octane_98":"yes","fuel:octane_95":"yes","fuel:octane_91":"yes","fuel:lpg":"yes","fuel:diesel":"yes","brand:wikipedia":"en:7-Eleven","website":"www.7elven.com.au","brand:wikidata":"Q259340","brand":"7-Eleven","name":"7-Eleven"}},
{"type":"Feature","geometry":{"type":"Point","coordinates":[145.035854,-37.795296]},"properties":{"full_id":"n3387040992","osm_id":"3387040992","osm_type":"node","amenity":"fuel","addr:province":"VIC","addr:city":"Kew","brand:wikipedia":"en:Ampol","opening_hours":"24/7","brand:wikidata":"Q4748528","brand":"Ampol","addr:street":"Earl Street","addr:postcode":"3101","addr:housenumber":"115","name":"Ampol"}},
{"type":"Feature","geometry":{"type":"Point","coordinates":[145.0965871,-37.6001409]},"properties":{"full_id":"n3391912496","osm_id":"3391912496","osm_type":"node","amenity":"fuel","full_name":"Coles Express Mernda","brand:wikipedia":"en:Coles Express","website":"https://www.colesexpress.com.au/","brand:wikidata":"Q5144653","brand":"Coles Express","name":"Coles Express"}},
{"type":"Feature","geometry":{"type":"Point","coordinates":[145.022227,-37.7476974]},"properties":{"full_id":"n3420368183","osm_id":"3420368183","osm_type":"node","amenity":"fuel","brand:wikipedia":"en:United Petroleum","brand:wikidata":"Q28224393","brand":"United","name":"United"}},
{"type":"Feature","geometry":{"type":"Point","coordinates":[145.0391525,-38.2334164]},"properties":{"full_id":"n3426237808","osm_id":"3426237808","osm_type":"node","amenity":"fuel","brand:wikipedia":"en:Caltex","brand:wikidata":"Q277470","brand":"Caltex","name":"Caltex"}},
{"type":"Feature","geometry":{"type":"Point","coordinates":[145.1950565,-37.8587664]},"properties":{"full_id":"n3429964259","osm_id":"3429964259","osm_type":"node","amenity":"fuel","brand:wikipedia":"en:Coles Express","website":"https://www.colesexpress.com.au/","brand:wikidata":"Q5144653","brand":"Coles Express","name":"Coles Express"}},
{"type":"Feature","geometry":{"type":"Point","coordinates":[144.8665868,-37.7071887]},"properties":{"full_id":"n3510127537","osm_id":"3510127537","osm_type":"node","amenity":"fuel","brand:wikipedia":"en:Caltex","website":"https://www.caltex.com.au/","brand:wikidata":"Q277470","brand":"Caltex","name":"Caltex"}},
{"type":"Feature","geometry":{"type":"Point","coordinates":[145.2223736,-37.8764476]},"properties":{"full_id":"n3518440709","osm_id":"3518440709","osm_type":"node","amenity":"fuel","brand":"Caltex","name":"Caltex"}},
{"type":"Feature","geometry":{"type":"Point","coordinates":[145.1369793,-38.2046321]},"properties":{"full_id":"n3552572793","osm_id":"3552572793","osm_type":"node","amenity":"fuel","brand:wikipedia":"en:BP","brand:wikidata":"Q152057","brand":"BP","name":"BP AA Peninsula Link Southbound"}},
{"type":"Feature","geometry":{"type":"Point","coordinates":[145.1333971,-38.2039935]},"properties":{"full_id":"n3552572794","osm_id":"3552572794","osm_type":"node","amenity":"fuel","brand:wikipedia":"en:BP","brand:wikidata":"Q152057","brand":"BP","name":"BP AA Peninsula Link Northbound"}},
{"type":"Feature","geometry":{"type":"Point","coordinates":[145.232434,-37.8763285]},"properties":{"full_id":"n3615032014","osm_id":"3615032014","osm_type":"node","amenity":"fuel","brand:wikipedia":"en:BP","operator":"BP","brand:wikidata":"Q152057","brand":"BP","name":"BP"}},
{"type":"Feature","geometry":{"type":"Point","coordinates":[145.0761897,-37.6588404]},"properties":{"full_id":"n3617398048","osm_id":"3617398048","osm_type":"node","amenity":"fuel","operator":"Shell"}},
{"type":"Feature","geometry":{"type":"Point","coordinates":[144.6286129,-37.7064432]},"properties":{"full_id":"n3647155926","osm_id":"3647155926","osm_type":"node","amenity":"fuel","brand:wikipedia":"en:BP","website":"www.bp.com.au","brand:wikidata":"Q152057","brand":"BP","name":"BP"}},
{"type":"Feature","geometry":{"type":"Point","coordinates":[145.1824964,-38.3282957]},"properties":{"full_id":"n3802947086","osm_id":"3802947086","osm_type":"node","amenity":"fuel","opening_hours":"Mo-Fr 08:00-18:00; Sa 09:00-12:00","name":"Bittern Motors"}},
{"type":"Feature","geometry":{"type":"Point","coordinates":[145.4584468,-37.7776473]},"properties":{"full_id":"n3835060267","osm_id":"3835060267","osm_type":"node","amenity":"fuel","brand:wikipedia":"en:Caltex","website":"https://www.woolworthspetrol.com.au/","brand:wikidata":"Q277470","brand":"Caltex","name":"caltex"}},
{"type":"Feature","geometry":{"type":"Point","coordinates":[145.0407915,-37.8579635]},"properties":{"full_id":"n3838385913","osm_id":"3838385913","osm_type":"node","amenity":"fuel","addr:city":"Malvern","brand:wikipedia":"en:BP","brand:wikidata":"Q152057","brand":"BP","addr:street":"High Street","addr:postcode":"3144","addr:housenumber":"1377","name":"BP"}},
{"type":"Feature","geometry":{"type":"Point","coordinates":[145.1803142,-37.9536119]},"properties":{"full_id":"n3879055691","osm_id":"3879055691","osm_type":"node","amenity":"fuel","brand:wikipedia":"en:United Petroleum","website":"https://www.unitedpetroleum.com.au/","brand:wikidata":"Q28224393","brand":"United","name":"United"}},
{"type":"Feature","geometry":{"type":"Point","coordinates":[144.8943385,-37.8507449]},"properties":{"full_id":"n3881388076","osm_id":"3881388076","osm_type":"node","amenity":"fuel","name":"Pantellis"}},
{"type":"Feature","geometry":{"type":"Point","coordinates":[144.9175361,-37.829519]},"properties":{"full_id":"n3882838282","osm_id":"3882838282","osm_type":"node","amenity":"fuel","brand:wikipedia":"en:Coles Express","website":"https://www.colesexpress.com.au/","operator":"Eureka Operations","brand:wikidata":"Q5144653","brand":"Coles Express","name":"Coles Express"}},
{"type":"Feature","geometry":{"type":"Point","coordinates":[144.9707364,-38.3300781]},"properties":{"full_id":"n3909127657","osm_id":"3909127657","osm_type":"node","amenity":"fuel","brand:wikipedia":"en:Caltex","brand:wikidata":"Q277470","brand":"Caltex","name":"Caltex"}},
{"type":"Feature","geometry":{"type":"Point","coordinates":[145.1719482,-37.8408911]},"properties":{"full_id":"n3928348522","osm_id":"3928348522","osm_type":"node","amenity":"fuel","brand:wikipedia":"en:Royal Dutch Shell","brand:wikidata":"Q154950","brand":"Shell","name":"Shell"}},
{"type":"Feature","geometry":{"type":"Point","coordinates":[144.9795716,-37.7928126]},"properties":{"full_id":"n3949687613","osm_id":"3949687613","osm_type":"node","amenity":"fuel","brand:wikipedia":"en:Royal Dutch Shell","operator":"Shell","brand:wikidata":"Q154950","brand":"Shell","name":"Shell"}},
{"type":"Feature","geometry":{"type":"Point","coordinates":[145.261037,-37.8273292]},"properties":{"full_id":"n3952561789","osm_id":"3952561789","osm_type":"node","amenity":"fuel","self_service":"yes","brand:wikipedia":"en:BP","opening_hours":"24/7","brand:wikidata":"Q152057","brand":"BP","addr:suburb":"Ringwood East","addr:street":"Canterbury Road","addr:state":"VIC","addr:postcode":"3135","addr:housenumber":"382","name":"BP"}},
{"type":"Feature","geometry":{"type":"Point","coordinates":[144.9596078,-38.3354785]},"properties":{"full_id":"n3965101237","osm_id":"3965101237","osm_type":"node","amenity":"fuel","website":"https://www.7eleven.com.au/","brand":"Mobil","name":"7-Eleven"}},
{"type":"Feature","geometry":{"type":"Point","coordinates":[144.9434941,-37.5411781]},"properties":{"full_id":"n4044971489","osm_id":"4044971489","osm_type":"node","amenity":"fuel","brand:wikipedia":"en:Coles Express","website":"https://www.colesexpress.com.au/","operator":"Eureka Operations","brand:wikidata":"Q5144653","brand":"Coles Express","name":"Coles Express"}},
{"type":"Feature","geometry":{"type":"Point","coordinates":[145.5234128,-37.6506632]},"properties":{"full_id":"n4056185245","osm_id":"4056185245","osm_type":"node","amenity":"fuel","brand:wikipedia":"en:Caltex","brand:wikidata":"Q277470","brand":"Caltex","name":"Caltex"}},
{"type":"Feature","geometry":{"type":"Point","coordinates":[144.7034388,-37.8687942]},"properties":{"full_id":"n4060933054","osm_id":"4060933054","osm_type":"node","amenity":"fuel","name":"Apco"}},
{"type":"Feature","geometry":{"type":"Point","coordinates":[144.6904681,-37.8347384]},"properties":{"full_id":"n4060933069","osm_id":"4060933069","osm_type":"node","amenity":"fuel","brand:wikipedia":"en:BP","website":"www.bp.com.au","brand:wikidata":"Q152057","brand":"BP","name":"BP"}},
{"type":"Feature","geometry":{"type":"Point","coordinates":[145.1368874,-37.8306382]},"properties":{"full_id":"n4070568052","osm_id":"4070568052","osm_type":"node","amenity":"fuel","self_service":"yes","car_wash":"yes","fuel:octane_98":"yes","fuel:octane_91":"yes","fuel:diesel":"yes","brand:wikipedia":"en:Mobil","brand:wikidata":"Q3088656","brand":"Mobil","name":"Mobil"}},
{"type":"Feature","geometry":{"type":"Point","coordinates":[144.9174544,-37.6804131]},"properties":{"full_id":"n4184922689","osm_id":"4184922689","osm_type":"node","amenity":"fuel","brand:wikipedia":"en:Caltex Woolworths","brand:wikidata":"Q5023980","brand":"Caltex","name":"Woolworths Petrol"}},
{"type":"Feature","geometry":{"type":"Point","coordinates":[144.7773032,-37.8711226]},"properties":{"full_id":"n4186252202","osm_id":"4186252202","osm_type":"node","amenity":"fuel","brand:wikipedia":"en:Caltex Woolworths","brand:wikidata":"Q5023980","brand":"Caltex","name":"Woolworths Petrol"}},
{"type":"Feature","geometry":{"type":"Point","coordinates":[145.2956944,-37.823314]},"properties":{"full_id":"n4245951269","osm_id":"4245951269","osm_type":"node","amenity":"fuel","brand:wikipedia":"en:Caltex","brand:wikidata":"Q277470","brand":"Caltex","name":"Caltex"}},
{"type":"Feature","geometry":{"type":"Point","coordinates":[144.9944315,-37.7559241]},"properties":{"full_id":"n4543863821","osm_id":"4543863821","osm_type":"node","amenity":"fuel","shop":"convenience","fuel:octane_95":"yes","fuel:octane_91":"yes","fuel:diesel":"yes","brand":"BP","addr:street":"St Georges Road","name":"BP RIO motors"}},
{"type":"Feature","geometry":{"type":"Point","coordinates":[144.9511209,-37.6469251]},"properties":{"full_id":"n4550116166","osm_id":"4550116166","osm_type":"node","amenity":"fuel","name":"Shell Coles Express"}},
{"type":"Feature","geometry":{"type":"Point","coordinates":[144.7515611,-37.8128291]},"properties":{"full_id":"n4666702624","osm_id":"4666702624","osm_type":"node","amenity":"fuel","name":"BP"}},
{"type":"Feature","geometry":{"type":"Point","coordinates":[144.6679332,-37.8535007]},"properties":{"full_id":"n4682792514","osm_id":"4682792514","osm_type":"node","amenity":"fuel","name":"7 - Eleven"}},
{"type":"Feature","geometry":{"type":"Point","coordinates":[145.1134347,-37.7739892]},"properties":{"full_id":"n4688057860","osm_id":"4688057860","osm_type":"node","amenity":"fuel"}},
{"type":"Feature","geometry":{"type":"Point","coordinates":[145.0841977,-37.92396]},"properties":{"full_id":"n4708952309","osm_id":"4708952309","osm_type":"node","amenity":"fuel","brand":"Caltex","name":"Caltex Woolworths"}},
{"type":"Feature","geometry":{"type":"Point","coordinates":[144.9413951,-37.6873247]},"properties":{"full_id":"n4723192922","osm_id":"4723192922","osm_type":"node","amenity":"fuel","brand":"United"}},
{"type":"Feature","geometry":{"type":"Point","coordinates":[144.7463866,-37.8251506]},"properties":{"full_id":"n4752598440","osm_id":"4752598440","osm_type":"node","amenity":"fuel","brand:wikipedia":"en:Royal Dutch Shell","brand:wikidata":"Q154950","brand":"Shell","name":"Shell"}},
{"type":"Feature","geometry":{"type":"Point","coordinates":[145.1491828,-38.0985577]},"properties":{"full_id":"n4787228807","osm_id":"4787228807","osm_type":"node","amenity":"fuel","building":"garage","addr:street":"Rutherford Road","addr:housenumber":"22","name":"Broad Fuel"}},
{"type":"Feature","geometry":{"type":"Point","coordinates":[144.82917,-37.7731305]},"properties":{"full_id":"n4844783286","osm_id":"4844783286","osm_type":"node","amenity":"fuel","brand:wikipedia":"en:United Petroleum","brand:wikidata":"Q28224393","brand":"United","name":"United"}},
{"type":"Feature","geometry":{"type":"Point","coordinates":[144.9375764,-37.5922707]},"properties":{"full_id":"n4945407335","osm_id":"4945407335","osm_type":"node","amenity":"fuel","brand:wikipedia":"en:BP","brand:wikidata":"Q152057","brand":"BP","name":"BP"}},
{"type":"Feature","geometry":{"type":"Point","coordinates":[144.9181464,-37.5750781]},"properties":{"full_id":"n4946354894","osm_id":"4946354894","osm_type":"node","amenity":"fuel","phone":"+61 1300 655 055","fuel:octane_95":"yes","fuel:octane_91":"yes","fuel:diesel":"yes","brand:wikipedia":"en:Euro Garages Australia","website":"https://www.woolworths.com.au/Shop/StoreLocator/VIC-Craigieburn-3592-PETROL","opening_hours":"06:00-22:00","brand:wikidata":"Q5023980","brand":"Caltex","name":"Woolworths Petrol"}},
{"type":"Feature","geometry":{"type":"Point","coordinates":[144.9914066,-37.7286979]},"properties":{"full_id":"n4959281596","osm_id":"4959281596","osm_type":"node","amenity":"fuel","addr:city":"Reservoir","addr:street":"Gilbert Road","addr:postcode":"3073","addr:housenumber":"613","name":"Gilbert Road Motors"}},
{"type":"Feature","geometry":{"type":"Point","coordinates":[144.672954,-37.8403869]},"properties":{"full_id":"n5009331616","osm_id":"5009331616","osm_type":"node","amenity":"fuel","addr:city":"Melbourne","brand:wikipedia":"en:Caltex Woolworths","website":"https://caltex.com.au/","opening_hours":"Mo-Su 05:00-23:00","brand:wikidata":"Q5023980","brand":"Caltex","addr:street":"Tarneit Road","addr:postcode":"3029","addr:housenumber":"747","name":"Woolworths Petrol"}},
{"type":"Feature","geometry":{"type":"Point","coordinates":[145.1137503,-37.7570613]},"properties":{"full_id":"n5152975121","osm_id":"5152975121","osm_type":"node","amenity":"fuel","brand:wikipedia":"en:BP","brand:wikidata":"Q152057","brand":"BP","name":"BP"}},
{"type":"Feature","geometry":{"type":"Point","coordinates":[144.780976,-37.8436656]},"properties":{"full_id":"n5159834296","osm_id":"5159834296","osm_type":"node","amenity":"fuel","brand:wikipedia":"en:Caltex","brand:wikidata":"Q277470","brand":"Caltex","name":"Caltex"}},
{"type":"Feature","geometry":{"type":"Point","coordinates":[144.8963818,-37.8589039]},"properties":{"full_id":"n5174014722","osm_id":"5174014722","osm_type":"node","amenity":"fuel","brand:wikidata":"Q111970125","brand":"Metro Petroleum","name":"Metro Petroleum"}},
{"type":"Feature","geometry":{"type":"Point","coordinates":[144.7863333,-37.8127964]},"properties":{"full_id":"n5177180799","osm_id":"5177180799","osm_type":"node","amenity":"fuel","name":"Shell"}},
{"type":"Feature","geometry":{"type":"Point","coordinates":[145.0041399,-37.6937947]},"properties":{"full_id":"n5177183075","osm_id":"5177183075","osm_type":"node","amenity":"fuel","brand:wikipedia":"en:United Petroleum","brand:wikidata":"Q28224393","brand":"United","name":"United"}},
{"type":"Feature","geometry":{"type":"Point","coordinates":[145.0265066,-37.6448509]},"properties":{"full_id":"n5177183277","osm_id":"5177183277","osm_type":"node","amenity":"fuel","name":"Apco"}},
{"type":"Feature","geometry":{"type":"Point","coordinates":[145.0977334,-37.850407]},"properties":{"full_id":"n5189599794","osm_id":"5189599794","osm_type":"node","amenity":"fuel","brand:wikipedia":"en:Royal Dutch Shell","brand:wikidata":"Q154950","brand":"Shell","name":"Shell"}},
{"type":"Feature","geometry":{"type":"Point","coordinates":[145.1538886,-37.9450991]},"properties":{"full_id":"n5205353612","osm_id":"5205353612","osm_type":"node","amenity":"fuel","brand:wikipedia":"en:Puma Energy","operator":"Puma","opening_hours":"24/7","brand:wikidata":"Q7259769","brand":"Puma","addr:street":"Springvale Road","addr:housenumber":"159-171","name":"Puma"}},
{"type":"Feature","geometry":{"type":"Point","coordinates":[145.1920387,-37.9457257]},"properties":{"full_id":"n5227301504","osm_id":"5227301504","osm_type":"node","amenity":"fuel","name":"United"}},
{"type":"Feature","geometry":{"type":"Point","coordinates":[144.7829397,-37.8414906]},"properties":{"full_id":"n5231905964","osm_id":"5231905964","osm_type":"node","amenity":"fuel","fuel:octane_95":"no","fuel:octane_91":"no","fuel:e10":"no","fuel:diesel":"yes","brand":"Caltex","name":"Caltex - Diesel only"}},
{"type":"Feature","geometry":{"type":"Point","coordinates":[144.7407538,-37.7117302]},"properties":{"full_id":"n5242175962","osm_id":"5242175962","osm_type":"node","amenity":"fuel","brand:wikipedia":"en:Coles Express","brand:wikidata":"Q5144653","brand":"Coles Express","name":"Coles Express"}},
{"type":"Feature","geometry":{"type":"Point","coordinates":[144.7817127,-37.7280322]},"properties":{"full_id":"n5242329397","osm_id":"5242329397","osm_type":"node","amenity":"fuel","brand:wikipedia":"en:Caltex","brand:wikidata":"Q277470","brand":"Caltex","name":"Caltex"}},
{"type":"Feature","geometry":{"type":"Point","coordinates":[145.0493774,-37.7522087]},"properties":{"full_id":"n5268866083","osm_id":"5268866083","osm_type":"node","amenity":"fuel","opening_hours:signed":"no","brand:wikipedia":"en:BP","brand:wikidata":"Q152057","brand":"BP","name":"BP"}},
{"type":"Feature","geometry":{"type":"Point","coordinates":[144.7829742,-37.8414307]},"properties":{"full_id":"n5269675178","osm_id":"5269675178","osm_type":"node","amenity":"fuel","name":"Diesel Truck Stop"}},
{"type":"Feature","geometry":{"type":"Point","coordinates":[145.1832702,-38.3084959]},"properties":{"full_id":"n5281056730","osm_id":"5281056730","osm_type":"node","amenity":"fuel","brand:wikipedia":"en:Caltex","brand:wikidata":"Q277470","brand":"Caltex","name":"Caltex"}},
{"type":"Feature","geometry":{"type":"Point","coordinates":[144.8171246,-38.3698893]},"properties":{"full_id":"n5302902210","osm_id":"5302902210","osm_type":"node","amenity":"fuel","operator:wikipedia":"en:Euro Garages Australia","operator:wikidata":"Q5023980","phone":"+61 3 4026 0890","fuel:octane_98":"yes","fuel:octane_95":"yes","fuel:octane_91":"yes","fuel:lpg":"yes","fuel:diesel":"yes","operator":"Euro Garages Australia","opening_hours":"24/7","addr:street":"Point Nepean Road","addr:housenumber":"2479, 2481","name":"Caltex Woolworths Rye"}},
{"type":"Feature","geometry":{"type":"Point","coordinates":[144.827553,-38.3712815]},"properties":{"full_id":"n5302902224","osm_id":"5302902224","osm_type":"node","amenity":"fuel","brand:wikipedia":"en:BP","brand:wikidata":"Q152057","brand":"BP","name":"BP"}},
{"type":"Feature","geometry":{"type":"Point","coordinates":[144.7763803,-38.3606467]},"properties":{"full_id":"n5302902229","osm_id":"5302902229","osm_type":"node","amenity":"fuel","name":"United"}},
{"type":"Feature","geometry":{"type":"Point","coordinates":[144.7237549,-37.5833168]},"properties":{"full_id":"n5307419051","osm_id":"5307419051","osm_type":"node","amenity":"fuel","brand:wikipedia":"en:Ampol","brand:wikidata":"Q4748528","brand":"Ampol","name":"Ampol"}},
{"type":"Feature","geometry":{"type":"Point","coordinates":[144.684835,-37.8634608]},"properties":{"full_id":"n5307420378","osm_id":"5307420378","osm_type":"node","amenity":"fuel","brand:wikipedia":"en:Caltex","brand:wikidata":"Q277470","brand":"Caltex","name":"Caltex"}},
{"type":"Feature","geometry":{"type":"Point","coordinates":[145.1945654,-38.3534479]},"properties":{"full_id":"n5307420794","osm_id":"5307420794","osm_type":"node","amenity":"fuel","name":"United "}},
{"type":"Feature","geometry":{"type":"Point","coordinates":[144.8866268,-37.8480699]},"properties":{"full_id":"n5353342950","osm_id":"5353342950","osm_type":"node","amenity":"fuel","name":"BP"}},
{"type":"Feature","geometry":{"type":"Point","coordinates":[145.137939,-37.9009505]},"properties":{"full_id":"n5355731690","osm_id":"5355731690","osm_type":"node","amenity":"fuel","brand:wikipedia":"en:United Petroleum","brand:wikidata":"Q28224393","brand":"United","name":"United "}},
{"type":"Feature","geometry":{"type":"Point","coordinates":[144.7319489,-37.8648186]},"properties":{"full_id":"n5358097305","osm_id":"5358097305","osm_type":"node","amenity":"fuel","name":"7-Eleven"}},
{"type":"Feature","geometry":{"type":"Point","coordinates":[145.1211471,-37.5114053]},"properties":{"full_id":"n5379694816","osm_id":"5379694816","osm_type":"node","amenity":"fuel","brand:wikipedia":"en:Caltex","brand:wikidata":"Q277470","brand":"Caltex","name":"Caltex"}},
{"type":"Feature","geometry":{"type":"Point","coordinates":[145.541725,-37.7829619]},"properties":{"full_id":"n5392460647","osm_id":"5392460647","osm_type":"node","amenity":"fuel","addr:street":"Warburton Highway","addr:housenumber":"1700","name":"Shell"}},
{"type":"Feature","geometry":{"type":"Point","coordinates":[144.8393529,-37.8657177]},"properties":{"full_id":"n5424010978","osm_id":"5424010978","osm_type":"node","amenity":"fuel","name":"Liberty"}},
{"type":"Feature","geometry":{"type":"Point","coordinates":[145.1537576,-37.9449352]},"properties":{"full_id":"n5496187722","osm_id":"5496187722","osm_type":"node","amenity":"fuel","brand:wikipedia":"en:Puma Energy","brand:wikidata":"Q7259769","brand":"Puma","name":"puma"}},
{"type":"Feature","geometry":{"type":"Point","coordinates":[144.8872824,-37.6769321]},"properties":{"full_id":"n5502920912","osm_id":"5502920912","osm_type":"node","amenity":"fuel","fuel:Unleaded":"yes","payment:cash":"yes","phone":"+61393384307","fuel:octane_98":"yes","fuel:octane_95":"yes","addr:street":"Fawkner Street","addr:housenumber":"36","name":"Westmeadows Service Centre","description":"Shell petrol station and local mechanic."}},
{"type":"Feature","geometry":{"type":"Point","coordinates":[144.9232305,-37.6625595]},"properties":{"full_id":"n5506920059","osm_id":"5506920059","osm_type":"node","amenity":"fuel","brand:wikipedia":"en:7-Eleven","brand:wikidata":"Q259340","brand":"7-Eleven","name":"7-Eleven"}},
{"type":"Feature","geometry":{"type":"Point","coordinates":[144.8189891,-37.8193892]},"properties":{"full_id":"n5512504369","osm_id":"5512504369","osm_type":"node","amenity":"fuel","name":"Caltex"}},
{"type":"Feature","geometry":{"type":"Point","coordinates":[144.9543813,-37.6886145]},"properties":{"full_id":"n5668188751","osm_id":"5668188751","osm_type":"node","amenity":"fuel","brand:wikipedia":"fr:TotalEnergies","brand:wikidata":"Q154037","brand":"Total","name":"Total"}},
{"type":"Feature","geometry":{"type":"Point","coordinates":[144.8979395,-37.5344009]},"properties":{"full_id":"n5852962602","osm_id":"5852962602","osm_type":"node","amenity":"fuel","brand:wikipedia":"en:BP","brand:wikidata":"Q152057","brand":"BP","name":"BP"}},
{"type":"Feature","geometry":{"type":"Point","coordinates":[145.0235952,-37.6513591]},"properties":{"full_id":"n5872919676","osm_id":"5872919676","osm_type":"node","amenity":"fuel","brand:wikipedia":"en:7-Eleven","opening_hours":"24/7","brand:wikidata":"Q259340","brand":"7-Eleven","name":"7-Eleven"}},
{"type":"Feature","geometry":{"type":"Point","coordinates":[144.9648752,-37.7522011]},"properties":{"full_id":"n5873247129","osm_id":"5873247129","osm_type":"node","amenity":"fuel","name":"Caltex"}},
{"type":"Feature","geometry":{"type":"Point","coordinates":[144.9653762,-37.7475742]},"properties":{"full_id":"n5873250754","osm_id":"5873250754","osm_type":"node","amenity":"fuel","brand:wikipedia":"en:Caltex","brand:wikidata":"Q277470","brand":"Caltex","addr:street":"Sydney Road","addr:housenumber":"265","name":"Caltex"}},
{"type":"Feature","geometry":{"type":"Point","coordinates":[144.9434884,-37.600189]},"properties":{"full_id":"n5936035360","osm_id":"5936035360","osm_type":"node","amenity":"fuel","name":"Liberty"}},
{"type":"Feature","geometry":{"type":"Point","coordinates":[144.8314727,-37.7917842]},"properties":{"full_id":"n5999385859","osm_id":"5999385859","osm_type":"node","amenity":"fuel","name":"7-Eleven"}},
{"type":"Feature","geometry":{"type":"Point","coordinates":[145.3279051,-37.8865459]},"properties":{"full_id":"n6062490651","osm_id":"6062490651","osm_type":"node","amenity":"fuel","fuel:octane_98":"yes","fuel:octane_91":"yes","fuel:diesel":"yes","brand:wikipedia":"en:Ampol","opening_hours":"Mo-Su 06:00-21:00","brand:wikidata":"Q4748528","brand":"Ampol","addr:suburb":"Tremont","addr:street":"Mount Dandenong Tourist Road","addr:state":"VIC","addr:postcode":"3785","addr:housenumber":"100","name":"Tremont Petrol Station"}},
{"type":"Feature","geometry":{"type":"Point","coordinates":[144.8397716,-37.7785694]},"properties":{"full_id":"n6089229398","osm_id":"6089229398","osm_type":"node","amenity":"fuel","brand:wikipedia":"en:Caltex","brand:wikidata":"Q277470","brand":"Caltex","name":"Caltex"}},
{"type":"Feature","geometry":{"type":"Point","coordinates":[144.6065734,-37.6870866]},"properties":{"full_id":"n6263288204","osm_id":"6263288204","osm_type":"node","amenity":"fuel","brand:wikipedia":"en:Ampol","brand:wikidata":"Q4748528","brand":"Ampol","name":"Ampol"}},
{"type":"Feature","geometry":{"type":"Point","coordinates":[144.8800112,-37.7875564]},"properties":{"full_id":"n6273314383","osm_id":"6273314383","osm_type":"node","amenity":"fuel","brand:wikipedia":"en:Caltex","brand:wikidata":"Q277470","brand":"Caltex","name":"Caltex"}},
{"type":"Feature","geometry":{"type":"Point","coordinates":[144.8674646,-37.7824772]},"properties":{"full_id":"n6273315310","osm_id":"6273315310","osm_type":"node","amenity":"fuel","name":"Liberty"}},
{"type":"Feature","geometry":{"type":"Point","coordinates":[145.0633257,-37.7948514]},"properties":{"full_id":"n6346696852","osm_id":"6346696852","osm_type":"node","amenity":"fuel","brand:wikipedia":"en:BP","brand:wikidata":"Q152057","brand":"BP","name":"BP"}},
{"type":"Feature","geometry":{"type":"Point","coordinates":[145.0124261,-37.8788915]},"properties":{"full_id":"n6364273020","osm_id":"6364273020","osm_type":"node","amenity":"fuel","brand:wikipedia":"en:7-Eleven","brand:wikidata":"Q259340","brand":"7-Eleven","name":"7-Eleven"}},
{"type":"Feature","geometry":{"type":"Point","coordinates":[145.2724949,-38.0114525]},"properties":{"full_id":"n6366312066","osm_id":"6366312066","osm_type":"node","highway":"crossing","crossing":"unmarked"}},
{"type":"Feature","geometry":{"type":"Point","coordinates":[144.7219939,-37.5843749]},"properties":{"full_id":"n6943128751","osm_id":"6943128751","osm_type":"node","amenity":"fuel","brand:wikipedia":"en:Puma Energy","operator":"Puma","brand:wikidata":"Q7259769","brand":"Puma","addr:suburb":"Sunbury","addr:street":"Horne Street","addr:state":"VIC","addr:postcode":"3429","addr:housenumber":"96","name":"Puma Sunbury"}},
{"type":"Feature","geometry":{"type":"Point","coordinates":[144.987622,-37.7984155]},"properties":{"full_id":"n7034469846","osm_id":"7034469846","osm_type":"node","amenity":"fuel"}},
{"type":"Feature","geometry":{"type":"Point","coordinates":[145.1889254,-37.8167137]},"properties":{"full_id":"n7037459531","osm_id":"7037459531","osm_type":"node","amenity":"fuel","brand:wikipedia":"en:United Petroleum","brand:wikidata":"Q28224393","brand":"United","name":"United"}},
{"type":"Feature","geometry":{"type":"Point","coordinates":[144.988686,-37.6922227]},"properties":{"full_id":"n7085435022","osm_id":"7085435022","osm_type":"node","amenity":"fuel","brand:wikidata":"Q111970125","brand":"Metro Petroleum","name":"Metro Petroleum"}},
{"type":"Feature","geometry":{"type":"Point","coordinates":[144.9998684,-37.8136954]},"properties":{"full_id":"n7105899713","osm_id":"7105899713","osm_type":"node","amenity":"fuel","brand:wikipedia":"en:7-Eleven","brand:wikidata":"Q259340","brand":"7-Eleven","name":"7-Eleven"}},
{"type":"Feature","geometry":{"type":"Point","coordinates":[145.1493394,-37.9278553]},"properties":{"full_id":"n7178215988","osm_id":"7178215988","osm_type":"node","amenity":"fuel","brand:wikipedia":"en:BP","brand:wikidata":"Q152057","brand":"BP","name":"BP"}},
{"type":"Feature","geometry":{"type":"Point","coordinates":[145.0520295,-37.912715]},"properties":{"full_id":"n7383902290","osm_id":"7383902290","osm_type":"node","amenity":"fuel","brand:wikipedia":"en:7-Eleven","brand:wikidata":"Q259340","brand":"7-Eleven","name":"7-Eleven"}},
{"type":"Feature","geometry":{"type":"Point","coordinates":[145.2944211,-37.772536]},"properties":{"full_id":"n7579231076","osm_id":"7579231076","osm_type":"node","amenity":"fuel","brand:wikipedia":"en:United Petroleum","brand:wikidata":"Q28224393","brand":"United","addr:street":"Maroondah Highway","addr:housenumber":"394","name":"United"}},
{"type":"Feature","geometry":{"type":"Point","coordinates":[144.8562665,-37.7803216]},"properties":{"full_id":"n7836109566","osm_id":"7836109566","osm_type":"node","amenity":"fuel","brand:wikipedia":"en:BP","brand:wikidata":"Q152057","brand":"BP","name":"BP"}},
{"type":"Feature","geometry":{"type":"Point","coordinates":[145.6462338,-37.7719427]},"properties":{"full_id":"n7950378128","osm_id":"7950378128","osm_type":"node","amenity":"fuel","addr:street":"Warburton Highway","name":"Local Fuel"}},
{"type":"Feature","geometry":{"type":"Point","coordinates":[145.3227953,-38.0877206]},"properties":{"full_id":"n7986162543","osm_id":"7986162543","osm_type":"node","amenity":"fuel","name":"United"}},
{"type":"Feature","geometry":{"type":"Point","coordinates":[145.3287004,-37.7889321]},"properties":{"full_id":"n7995876447","osm_id":"7995876447","osm_type":"node","amenity":"fuel","self_service":"yes","fuel:octane_98":"yes","fuel:octane_95":"yes","fuel:octane_91":"yes","fuel:diesel":"yes","brand:wikidata":"Q152057","brand":"BP","addr:suburb":"Mooroolbark","addr:street":"Cardigan Road","addr:state":"VIC","addr:postcode":"3138","addr:housenumber":"103","name":"BP"}},
{"type":"Feature","geometry":{"type":"Point","coordinates":[144.8673239,-37.6930265]},"properties":{"full_id":"n8098423164","osm_id":"8098423164","osm_type":"node","amenity":"fuel","addr:street":"Airport Drive","name":"BP Tullamarine"}},
{"type":"Feature","geometry":{"type":"Point","coordinates":[145.0028433,-37.8483133]},"properties":{"full_id":"n8218392865","osm_id":"8218392865","osm_type":"node","amenity":"fuel","brand:wikipedia":"en:BP","brand:wikidata":"Q152057","brand":"BP","name":"BP"}},
{"type":"Feature","geometry":{"type":"Point","coordinates":[144.8589967,-37.7807501]},"properties":{"full_id":"n8358891015","osm_id":"8358891015","osm_type":"node","amenity":"fuel","name":"Metro"}},
{"type":"Feature","geometry":{"type":"Point","coordinates":[145.0245894,-37.6600677]},"properties":{"full_id":"n8436478300","osm_id":"8436478300","osm_type":"node","amenity":"fuel","brand:wikipedia":"en:7-Eleven","brand:wikidata":"Q259340","brand":"7-Eleven","name":"7-Eleven"}},
{"type":"Feature","geometry":{"type":"Point","coordinates":[144.8275568,-37.8387266]},"properties":{"full_id":"n8591586856","osm_id":"8591586856","osm_type":"node","amenity":"fuel","fuel:h70":"yes","operator":"Toyota Australia"}},
{"type":"Feature","geometry":{"type":"Point","coordinates":[144.8531216,-37.7987586]},"properties":{"full_id":"n8690596955","osm_id":"8690596955","osm_type":"node","amenity":"fuel","operator:wikipedia":"en:Viva Energy","operator:wikidata":"Q77024439","phone":"+61 414 193 434","fuel:octane_98":"yes","fuel:octane_95":"yes","fuel:diesel":"yes","brand:wikipedia":"en:Royal Dutch Shell","operator":"Viva Energy","brand:wikidata":"Q154950","brand":"Shell","addr:street":"Sunshine Road","addr:housenumber":"213A","name":"Shell Tottenham"}},
{"type":"Feature","geometry":{"type":"Point","coordinates":[145.0857942,-37.7310613]},"properties":{"full_id":"n8954068430","osm_id":"8954068430","osm_type":"node","amenity":"fuel","fuel:gasoline":"yes","self_service":"yes","fuel:lpg":"yes","fuel:diesel":"yes","name":"711 Service Station"}},
{"type":"Feature","geometry":{"type":"Point","coordinates":[145.32366,-38.1338221]},"properties":{"full_id":"n8991378230","osm_id":"8991378230","osm_type":"node","amenity":"fuel","name":"BP"}},
{"type":"Feature","geometry":{"type":"Point","coordinates":[145.3109323,-37.9816887]},"properties":{"full_id":"n8994657190","osm_id":"8994657190","osm_type":"node","crossing":"pedestrian","traffic_calming":"island"}},
{"type":"Feature","geometry":{"type":"Point","coordinates":[145.2199596,-37.808294]},"properties":{"full_id":"n9109561158","osm_id":"9109561158","osm_type":"node","amenity":"fuel","capacity":"8","payment:credit_cards":"yes","payment:cash":"yes","shop":"kiosk","fuel:discount":"ritchies","self_service":"yes","toilets":"no","phone":"+61 3 9870 4006","fuel:octane_98":"yes","fuel:octane_95":"yes","fuel:octane_91":"yes","fuel:diesel":"yes","compressed_air":"yes","website":"https://www.desbrownservicecentre.com.au/","operator":"Independent","brand":"Mobil","addr:suburb":"Ringwood North","addr:street":"Loughnan Road","addr:state":"VIC","addr:postcode":"3134","addr:housenumber":"83","name":"Des Brown Service Centre"}},
{"type":"Feature","geometry":{"type":"Point","coordinates":[145.2075788,-38.0571551]},"properties":{"full_id":"n9325736034","osm_id":"9325736034","osm_type":"node","amenity":"fuel","brand:wikipedia":"en:BP","brand:wikidata":"Q152057","brand":"BP","name":"BP"}},
{"type":"Feature","geometry":{"type":"Point","coordinates":[145.2351195,-37.7941125]},"properties":{"full_id":"n9336401126","osm_id":"9336401126","osm_type":"node","amenity":"fuel","self_service":"yes","fuel:octane_98":"yes","fuel:octane_91":"yes","fuel:diesel":"yes","brand:wikipedia":"en:7-Eleven","website":"https://www.7eleven.com.au/","brand:wikidata":"Q259340","brand":"7-Eleven","addr:suburb":"Ringwood North","addr:street":"Warrandyte Road","addr:state":"VIC","addr:postcode":"3134","addr:housenumber":"181","name":"7-Eleven"}},
{"type":"Feature","geometry":{"type":"Point","coordinates":[145.229886,-37.8049962]},"properties":{"full_id":"n9338829760","osm_id":"9338829760","osm_type":"node","amenity":"fuel","self_service":"yes","fuel:octane_98":"yes","fuel:octane_91":"yes","fuel:diesel":"yes","brand:wikipedia":"en:7-Eleven","website":"https://www.7eleven.com.au/","brand:wikidata":"Q259340","brand":"7-Eleven","addr:suburb":"Ringwood","addr:street":"Warrandyte Road","addr:state":"VIC","addr:postcode":"3134","addr:housenumber":"87-91","name":"7-Eleven"}},
{"type":"Feature","geometry":{"type":"Point","coordinates":[145.2533653,-37.7979135]},"properties":{"full_id":"n9339407608","osm_id":"9339407608","osm_type":"node","amenity":"fuel","self_service":"yes","fuel:octane_98":"yes","fuel:octane_95":"yes","fuel:octane_91":"yes","fuel:diesel":"yes","brand:wikipedia":"en:Royal Dutch Shell","brand:wikidata":"Q110716465","brand":"Shell","addr:suburb":"Ringwood East","addr:street":"Maroondah Highway","addr:state":"VIC","addr:postcode":"3135","addr:housenumber":"521","name":"Shell"}},
{"type":"Feature","geometry":{"type":"Point","coordinates":[145.2538473,-37.7986042]},"properties":{"full_id":"n9339413018","osm_id":"9339413018","osm_type":"node","amenity":"fuel","self_service":"yes","phone":"+61 3 9879 6490","fuel:octane_98":"yes","fuel:octane_95":"yes","fuel:octane_91":"yes","fuel:diesel":"yes","brand:wikipedia":"en:BP","website":"https://www.bp.com/en_au/australia/home.html","operator":"British Petroleum","brand:wikidata":"Q152057","brand":"BP","addr:suburb":"Ringwood","addr:street":"Maroondah Highway","addr:state":"VIC","addr:postcode":"3134","addr:housenumber":"420","name":"BP"}},
{"type":"Feature","geometry":{"type":"Point","coordinates":[145.1928818,-38.0205647]},"properties":{"full_id":"n9343053284","osm_id":"9343053284","osm_type":"node","amenity":"fuel","access":"permissive","fuel:diesel":"yes"}},
{"type":"Feature","geometry":{"type":"Point","coordinates":[145.3099134,-37.7902328]},"properties":{"full_id":"n9347733917","osm_id":"9347733917","osm_type":"node","amenity":"fuel","self_service":"yes","fuel:octane_91":"yes","fuel:diesel":"yes","brand:wikipedia":"en:Coles Express","brand:wikidata":"Q5144653","brand":"Coles Express","addr:suburb":"Mooroolbark","addr:street":"Cambridge Road","addr:state":"VIC","addr:postcode":"3138","addr:housenumber":"2","name":"Coles Express"}},
{"type":"Feature","geometry":{"type":"Point","coordinates":[145.2677695,-37.7831013]},"properties":{"full_id":"n9351514730","osm_id":"9351514730","osm_type":"node","amenity":"fuel","self_service":"yes","wheelchair":"yes","brand:wikipedia":"en:7-Eleven","website":"https://www.7eleven.com.au/","brand:wikidata":"Q259340","brand":"7-Eleven","name":"7-Eleven"}},
{"type":"Feature","geometry":{"type":"Point","coordinates":[145.1390932,-37.819251]},"properties":{"full_id":"n9359438865","osm_id":"9359438865","osm_type":"node","amenity":"fuel","self_service":"yes","phone":"+61 3 9075 1070","fuel:octane_98":"yes","fuel:octane_91":"yes","fuel:diesel":"yes","brand:wikipedia":"en:Royal Dutch Shell","website":"https://www.shell.com.au","brand:wikidata":"Q154950","brand":"Shell","addr:suburb":"Blackburn","addr:street":"Maroondah Highway","addr:state":"VIC","addr:postcode":"3130","addr:housenumber":"3","name":"Shell"}},
{"type":"Feature","geometry":{"type":"Point","coordinates":[145.3126063,-37.7601146]},"properties":{"full_id":"n9359826478","osm_id":"9359826478","osm_type":"node","amenity":"fuel","self_service":"yes","phone":"+61 3 9726 0165","fuel:octane_98":"yes","fuel:octane_95":"yes","fuel:octane_91":"yes","fuel:diesel":"yes","brand:wikipedia":"en:7-Eleven","website":"https://www.7eleven.com.au/","brand:wikidata":"Q259340","brand":"7-Eleven","addr:suburb":"Chirnside Park","addr:street":"Maroondah Highway","addr:state":"VIC","addr:postcode":"3116","addr:housenumber":"242","name":"7-Eleven"}},
{"type":"Feature","geometry":{"type":"Point","coordinates":[145.3110373,-37.7588425]},"properties":{"full_id":"n9359844849","osm_id":"9359844849","osm_type":"node","amenity":"fuel","self_service":"yes","brand:wikipedia":"en:Caltex","brand:wikidata":"Q277470","brand":"Caltex","addr:suburb":"Chirnside Park","addr:street":"Maroondah Highway","addr:state":"VIC","addr:postcode":"3116","addr:housenumber":"239-241","name":"Caltex"}},
{"type":"Feature","geometry":{"type":"Point","coordinates":[145.1177515,-37.8033479]},"properties":{"full_id":"n9393808317","osm_id":"9393808317","osm_type":"node","amenity":"fuel","name":"United Gas Station"}},
{"type":"Feature","geometry":{"type":"Point","coordinates":[145.0820258,-37.848503]},"properties":{"full_id":"n9405932505","osm_id":"9405932505","osm_type":"node","amenity":"fuel","self_service":"yes","brand:wikipedia":"en:BP","brand:wikidata":"Q152057","brand":"BP","addr:suburb":"Camberwell","addr:street":"Toorak Road","addr:state":"VIC","addr:postcode":"3124","addr:housenumber":"1237","name":"BP"}},
{"type":"Feature","geometry":{"type":"Point","coordinates":[145.1186529,-37.8501315]},"properties":{"full_id":"n9406289748","osm_id":"9406289748","osm_type":"node","amenity":"fuel","self_service":"yes","brand:wikipedia":"en:United Petroleum","brand:wikidata":"Q28224393","brand":"United","addr:suburb":"Burwood","addr:street":"Burwood Highway","addr:state":"VIC","addr:postcode":"3125","addr:housenumber":"259-265","name":"United"}},
{"type":"Feature","geometry":{"type":"Point","coordinates":[145.1627161,-37.8177879]},"properties":{"full_id":"n9406409078","osm_id":"9406409078","osm_type":"node","amenity":"fuel","self_service":"yes","brand:wikipedia":"en:BP","brand:wikidata":"Q152057","brand":"BP","addr:suburb":"Blackburn","addr:street":"Whitehorse Road","addr:state":"VIC","addr:postcode":"3130","addr:housenumber":"233-237","name":"BP"}},
{"type":"Feature","geometry":{"type":"Point","coordinates":[145.0857589,-37.8131461]},"properties":{"full_id":"n9406582745","osm_id":"9406582745","osm_type":"node","amenity":"fuel","self_service":"yes","fuel:octane_98":"yes","fuel:octane_95":"yes","fuel:octane_91":"yes","fuel:diesel":"yes","brand:wikipedia":"en:Royal Dutch Shell","brand:wikidata":"Q154950","brand":"Shell","addr:suburb":"Balwyn","addr:street":"Whitehorse Road","addr:state":"VIC","addr:postcode":"3103","addr:housenumber":"449","name":"Shell"}},
{"type":"Feature","geometry":{"type":"Point","coordinates":[145.0811792,-37.8122002]},"properties":{"full_id":"n9408591813","osm_id":"9408591813","osm_type":"node","amenity":"fuel","self_service":"yes","brand:wikipedia":"en:United Petroleum","website":"https://www.unitedpetroleum.com.au/","brand:wikidata":"Q28224393","brand":"United","name":"United"}},
{"type":"Feature","geometry":{"type":"Point","coordinates":[145.1755599,-37.8188827]},"properties":{"full_id":"n9408862222","osm_id":"9408862222","osm_type":"node","amenity":"fuel","self_service":"yes","fuel:octane_98":"yes","fuel:octane_95":"yes","fuel:octane_91":"yes","fuel:lpg":"yes","fuel:diesel":"yes","brand:wikipedia":"en:Royal Dutch Shell","website":"https://www.colesexpress.com.au/","brand:wikidata":"Q154950","brand":"Shell","name":"Shell"}},
{"type":"Feature","geometry":{"type":"Point","coordinates":[145.233835,-37.7602303]},"properties":{"full_id":"n9421917502","osm_id":"9421917502","osm_type":"node","amenity":"fuel","self_service":"yes","brand:wikipedia":"en:Royal Dutch Shell","brand:wikidata":"Q154950","brand":"Shell","addr:suburb":"Warrandyte","addr:street":"Ringwood - Warrandyte Road","addr:state":"VIC","addr:postcode":"3134","addr:housenumber":"482","name":"Shell"}},
{"type":"Feature","geometry":{"type":"Point","coordinates":[145.304857,-37.7647757]},"properties":{"full_id":"n9427218321","osm_id":"9427218321","osm_type":"node","amenity":"fuel","self_service":"yes","brand:wikipedia":"en:BP","brand:wikidata":"Q152057","brand":"BP","name":"BP"}},
{"type":"Feature","geometry":{"type":"Point","coordinates":[145.348256,-37.759316]},"properties":{"full_id":"n9429785902","osm_id":"9429785902","osm_type":"node","amenity":"fuel","brand:wikipedia":"en:Caltex","website":"https://www.woolworthspetrol.com.au/","brand:wikidata":"Q277470","brand":"Caltex","name":"Caltex"}},
{"type":"Feature","geometry":{"type":"Point","coordinates":[144.9988088,-37.6350594]},"properties":{"full_id":"n9437905490","osm_id":"9437905490","osm_type":"node","amenity":"fuel","brand:wikipedia":"en:Ampol","brand:wikidata":"Q4748528","brand":"Ampol","name":"Ampol"}},
{"type":"Feature","geometry":{"type":"Point","coordinates":[145.1594898,-37.799882]},"properties":{"full_id":"n9441326655","osm_id":"9441326655","osm_type":"node","amenity":"fuel","self_service":"yes","brand:wikipedia":"en:Caltex","brand:wikidata":"Q277470","brand":"Caltex","addr:suburb":"Doncaster East","addr:street":"Blackburn Road","addr:state":"VIC","addr:postcode":"3109","addr:housenumber":"5-15","name":"Caltex"}},
{"type":"Feature","geometry":{"type":"Point","coordinates":[145.1802159,-37.7970808]},"properties":{"full_id":"n9441353082","osm_id":"9441353082","osm_type":"node","amenity":"fuel","brand:wikipedia":"en:7-Eleven","website":"https://www.7eleven.com.au/","brand:wikidata":"Q259340","brand":"7-Eleven","name":"7-Eleven"}},
{"type":"Feature","geometry":{"type":"Point","coordinates":[144.9843249,-37.6035652]},"properties":{"full_id":"n9443469804","osm_id":"9443469804","osm_type":"node","amenity":"fuel","brand:wikipedia":"en:BP","brand:wikidata":"Q152057","brand":"BP","name":"BP"}},
{"type":"Feature","geometry":{"type":"Point","coordinates":[145.1669548,-37.7639651]},"properties":{"full_id":"n9461723207","osm_id":"9461723207","osm_type":"node","amenity":"fuel","self_service":"yes","brand:wikipedia":"en:Shell plc","website":"https://www.colesexpress.com.au/","operator":"Eureka Operations","brand:wikidata":"Q154950","brand":"Shell","name":"Shell"}},
{"type":"Feature","geometry":{"type":"Point","coordinates":[145.3658327,-37.7526206]},"properties":{"full_id":"n9502019318","osm_id":"9502019318","osm_type":"node","amenity":"fuel","brand:wikipedia":"en:United Petroleum","website":"https://www.unitedpetroleum.com.au/","brand:wikidata":"Q28224393","brand":"United","name":"United"}},
{"type":"Feature","geometry":{"type":"Point","coordinates":[145.1466752,-37.7876023]},"properties":{"full_id":"n9543850869","osm_id":"9543850869","osm_type":"node","amenity":"fuel","self_service":"yes","brand:wikipedia":"en:BP","brand:wikidata":"Q152057","brand":"BP","name":"BP"}},
{"type":"Feature","geometry":{"type":"Point","coordinates":[145.3428832,-37.755673]},"properties":{"full_id":"n9581823451","osm_id":"9581823451","osm_type":"node","amenity":"fuel","self_service":"yes","fuel:octane_91":"yes","fuel:diesel":"yes","brand:wikipedia":"en:7-Eleven","website":"https://www.7eleven.com.au/","brand:wikidata":"Q259340","brand":"7-Eleven","addr:suburb":"Lilydale","addr:state":"VIC","addr:postcode":"3140","name":"7-Eleven"}},
{"type":"Feature","geometry":{"type":"Point","coordinates":[145.2441725,-37.8050713]},"properties":{"full_id":"n9586620738","osm_id":"9586620738","osm_type":"node","amenity":"fuel","self_service":"yes","brand:wikipedia":"en:Caltex","brand:wikidata":"Q277470","brand":"Caltex","addr:suburb":"Ringwood","addr:street":"Maroondah Highway","addr:state":"VIC","addr:postcode":"3134","addr:housenumber":"379-381","name":"Caltex"}},
{"type":"Feature","geometry":{"type":"Point","coordinates":[144.8899195,-37.7867147]},"properties":{"full_id":"n9726856260","osm_id":"9726856260","osm_type":"node","amenity":"fuel","shop":"yes","phone":"+61 3 9318 4829","fuel:octane_98":"yes","fuel:octane_95":"yes","fuel:octane_91":"yes","fuel:lpg":"yes","fuel:diesel":"yes","brand:wikipedia":"en:Ampol","website":"https://ampol.com.au","opening_hours":"24/7","brand:wikidata":"Q4748528","brand":"Ampol","addr:street":"Gordon Street","addr:housenumber":"62-82","name":"Ampol Footscray"}},
{"type":"Feature","geometry":{"type":"Point","coordinates":[145.4117841,-38.0600092]},"properties":{"full_id":"n9729466815","osm_id":"9729466815","osm_type":"node","amenity":"fuel","brand:wikidata":"Q2289188","brand":"Shell Express","name":"Shell Express"}},
{"type":"Feature","geometry":{"type":"Point","coordinates":[145.3854171,-38.0551943]},"properties":{"full_id":"n9729468917","osm_id":"9729468917","osm_type":"node","amenity":"fuel","brand:wikidata":"Q152057","brand":"BP","name":"BP"}},
{"type":"Feature","geometry":{"type":"Point","coordinates":[145.2178885,-37.7792166]},"properties":{"full_id":"n9747783560","osm_id":"9747783560","osm_type":"node","amenity":"fuel","self_service":"yes","fuel:octane_98":"yes","fuel:octane_95":"yes","fuel:octane_91":"yes","fuel:diesel":"yes","operator":"Petrogas","brand":"Petrogas","addr:suburb":"Park Orchards","addr:street":"Park Road","addr:state":"VIC","addr:postcode":"3114","addr:housenumber":"610","name":"Petrogas"}},
{"type":"Feature","geometry":{"type":"Point","coordinates":[145.0325302,-37.7803013]},"properties":{"full_id":"n9896343379","osm_id":"9896343379","osm_type":"node","amenity":"fuel","name":"OTR"}},
{"type":"Feature","geometry":{"type":"Point","coordinates":[145.2483695,-38.0037815]},"properties":{"full_id":"n9933619661","osm_id":"9933619661","osm_type":"node","amenity":"fuel","brand:wikidata":"Q259340","brand":"7-Eleven","name":"7-Eleven"}},
{"type":"Feature","geometry":{"type":"Point","coordinates":[144.8623364,-37.6830029]},"properties":{"full_id":"n9949305121","osm_id":"9949305121","osm_type":"node","amenity":"fuel","name":"Unigas LPG"}},
{"type":"Feature","geometry":{"type":"Point","coordinates":[145.4901583,-38.204908]},"properties":{"full_id":"n9960421191","osm_id":"9960421191","osm_type":"node","amenity":"fuel","addr:street":"Sybella Avenue","addr:housenumber":"52","name":"John Duff and Co (Shell)"}}
]}
